<?xml version='1.0' encoding='utf-8'?>
<gpx xmlns="http://www.topografix.com/GPX/1/1" version="1.1" creator="OSRM / OpenStreetMap"><wpt lat="43.039262" lon="90.718605"><name>Start and Finish</name></wpt><wpt lat="43.137976" lon="90.894375"><name>Via</name></wpt><trk><name>G30 loop - 57.070 km</name><trkseg><trkpt lat="43.039292" lon="90.718589" /><trkpt lat="43.039651" lon="90.71986" /><trkpt lat="43.039945" lon="90.72083" /><trkpt lat="43.040212" lon="90.721709" /><trkpt lat="43.040608" lon="90.722891" /><trkpt lat="43.041032" lon="90.724153" /><trkpt lat="43.041478" lon="90.725364" /><trkpt lat="43.042061" lon="90.726898" /><trkpt lat="43.042697" lon="90.728479" /><trkpt lat="43.043564" lon="90.730506" /><trkpt lat="43.044158" lon="90.731857" /><trkpt lat="43.044862" lon="90.7333" /><trkpt lat="43.045571" lon="90.73474" /><trkpt lat="43.046475" lon="90.736407" /><trkpt lat="43.046971" lon="90.73727" /><trkpt lat="43.047561" lon="90.738341" /><trkpt lat="43.048393" lon="90.739711" /><trkpt lat="43.04847" lon="90.739838" /><trkpt lat="43.048522" lon="90.739926" /><trkpt lat="43.049307" lon="90.741259" /><trkpt lat="43.049611" lon="90.741776" /><trkpt lat="43.050912" lon="90.744035" /><trkpt lat="43.052027" lon="90.746001" /><trkpt lat="43.05283" lon="90.747382" /><trkpt lat="43.055002" lon="90.751115" /><trkpt lat="43.055314" lon="90.751651" /><trkpt lat="43.056028" lon="90.752862" /><trkpt lat="43.057256" lon="90.754989" /><trkpt lat="43.0603" lon="90.760256" /><trkpt lat="43.060508" lon="90.760612" /><trkpt lat="43.06066" lon="90.760873" /><trkpt lat="43.063619" lon="90.765948" /><trkpt lat="43.065168" lon="90.768713" /><trkpt lat="43.066813" lon="90.771821" /><trkpt lat="43.068683" lon="90.775665" /><trkpt lat="43.070608" lon="90.780134" /><trkpt lat="43.07706" lon="90.796561" /><trkpt lat="43.080678" lon="90.805899" /><trkpt lat="43.083005" lon="90.811773" /><trkpt lat="43.084852" lon="90.816489" /><trkpt lat="43.087445" lon="90.823077" /><trkpt lat="43.089596" lon="90.82867" /><trkpt lat="43.091206" lon="90.832647" /><trkpt lat="43.092533" lon="90.836093" /><trkpt lat="43.09275" lon="90.836658" /><trkpt lat="43.096857" lon="90.847082" /><trkpt lat="43.098588" lon="90.851633" /><trkpt lat="43.100263" lon="90.855751" /><trkpt lat="43.102005" lon="90.85958" /><trkpt lat="43.10385" lon="90.863131" /><trkpt lat="43.10572" lon="90.866621" /><trkpt lat="43.107962" lon="90.870469" /><trkpt lat="43.110103" lon="90.873969" /><trkpt lat="43.111565" lon="90.876094" /><trkpt lat="43.112909" lon="90.877981" /><trkpt lat="43.11392" lon="90.87931" /><trkpt lat="43.118116" lon="90.88448" /><trkpt lat="43.123974" lon="90.891778" /><trkpt lat="43.131559" lon="90.901237" /><trkpt lat="43.132218" lon="90.902058" /><trkpt lat="43.134064" lon="90.899347" /><trkpt lat="43.135321" lon="90.897804" /><trkpt lat="43.138224" lon="90.894636" /><trkpt lat="43.138037" lon="90.894309" /><trkpt lat="43.132133" lon="90.883996" /><trkpt lat="43.128179" lon="90.877091" /><trkpt lat="43.113804" lon="90.852294" /><trkpt lat="43.113424" lon="90.851629" /><trkpt lat="43.105727" lon="90.838148" /><trkpt lat="43.094238" lon="90.818255" /><trkpt lat="43.091792" lon="90.813925" /><trkpt lat="43.079775" lon="90.793108" /><trkpt lat="43.078013" lon="90.789982" /><trkpt lat="43.05794" lon="90.755094" /><trkpt lat="43.055499" lon="90.750852" /><trkpt lat="43.051334" lon="90.743616" /><trkpt lat="43.048933" lon="90.739482" /><trkpt lat="43.048887" lon="90.739403" /><trkpt lat="43.048804" lon="90.739258" /><trkpt lat="43.046195" lon="90.734763" /><trkpt lat="43.045011" lon="90.732572" /><trkpt lat="43.043874" lon="90.730223" /><trkpt lat="43.043024" lon="90.728265" /><trkpt lat="43.042134" lon="90.726127" /><trkpt lat="43.04163" lon="90.724859" /><trkpt lat="43.041293" lon="90.723946" /><trkpt lat="43.040868" lon="90.722744" /><trkpt lat="43.040424" lon="90.721439" /><trkpt lat="43.03978" lon="90.71941" /><trkpt lat="43.039448" lon="90.718207" /><trkpt lat="43.039314" lon="90.717682" /><trkpt lat="43.039243" lon="90.717416" /><trkpt lat="43.03911" lon="90.716927" /><trkpt lat="43.038715" lon="90.715466" /><trkpt lat="43.038203" lon="90.713341" /><trkpt lat="43.037663" lon="90.710666" /><trkpt lat="43.037151" lon="90.707586" /><trkpt lat="43.036751" lon="90.704603" /><trkpt lat="43.036439" lon="90.701614" /><trkpt lat="43.036236" lon="90.698397" /><trkpt lat="43.036148" lon="90.696371" /><trkpt lat="43.036143" lon="90.695396" /><trkpt lat="43.036133" lon="90.693559" /><trkpt lat="43.036094" lon="90.685125" /><trkpt lat="43.036004" lon="90.682204" /><trkpt lat="43.035837" lon="90.679578" /><trkpt lat="43.035493" lon="90.675818" /><trkpt lat="43.035053" lon="90.672389" /><trkpt lat="43.034586" lon="90.669568" /><trkpt lat="43.03279" lon="90.660508" /><trkpt lat="43.032745" lon="90.660281" /><trkpt lat="43.032668" lon="90.659889" /><trkpt lat="43.030794" lon="90.650164" /><trkpt lat="43.0303" lon="90.646897" /><trkpt lat="43.029904" lon="90.643706" /><trkpt lat="43.029563" lon="90.64032" /><trkpt lat="43.029316" lon="90.636925" /><trkpt lat="43.029061" lon="90.628829" /><trkpt lat="43.029131" lon="90.624343" /><trkpt lat="43.029338" lon="90.61912" /><trkpt lat="43.029491" lon="90.613863" /><trkpt lat="43.029501" lon="90.610229" /><trkpt lat="43.02939" lon="90.606549" /><trkpt lat="43.029279" lon="90.604527" /><trkpt lat="43.029195" lon="90.601399" /><trkpt lat="43.029158" lon="90.600409" /><trkpt lat="43.029129" lon="90.599969" /><trkpt lat="43.029116" lon="90.599844" /><trkpt lat="43.029039" lon="90.59907" /><trkpt lat="43.028957" lon="90.599086" /><trkpt lat="43.028701" lon="90.599137" /><trkpt lat="43.028609" lon="90.599156" /><trkpt lat="43.028674" lon="90.599823" /><trkpt lat="43.028735" lon="90.600378" /><trkpt lat="43.028805" lon="90.600925" /><trkpt lat="43.028913" lon="90.601666" /><trkpt lat="43.028957" lon="90.60201" /><trkpt lat="43.028997" lon="90.602365" /><trkpt lat="43.029131" lon="90.603904" /><trkpt lat="43.029276" lon="90.606564" /><trkpt lat="43.029387" lon="90.61024" /><trkpt lat="43.02939" lon="90.613865" /><trkpt lat="43.029231" lon="90.619123" /><trkpt lat="43.029024" lon="90.624335" /><trkpt lat="43.028951" lon="90.628832" /><trkpt lat="43.029196" lon="90.636889" /><trkpt lat="43.029459" lon="90.640345" /><trkpt lat="43.029795" lon="90.643744" /><trkpt lat="43.030207" lon="90.646987" /><trkpt lat="43.030697" lon="90.650219" /><trkpt lat="43.032558" lon="90.659911" /><trkpt lat="43.032641" lon="90.66033" /><trkpt lat="43.032686" lon="90.660557" /><trkpt lat="43.034478" lon="90.6696" /><trkpt lat="43.034946" lon="90.672424" /><trkpt lat="43.035385" lon="90.67586" /><trkpt lat="43.035735" lon="90.679595" /><trkpt lat="43.035889" lon="90.682203" /><trkpt lat="43.035988" lon="90.685085" /><trkpt lat="43.036017" lon="90.693587" /><trkpt lat="43.036041" lon="90.696409" /><trkpt lat="43.036123" lon="90.698413" /><trkpt lat="43.036325" lon="90.701668" /><trkpt lat="43.036623" lon="90.70467" /><trkpt lat="43.037015" lon="90.707663" /><trkpt lat="43.037433" lon="90.710202" /><trkpt lat="43.03758" lon="90.71111" /><trkpt lat="43.037741" lon="90.711923" /><trkpt lat="43.037975" lon="90.71311" /><trkpt lat="43.038474" lon="90.715361" /><trkpt lat="43.038971" lon="90.717406" /><trkpt lat="43.039042" lon="90.717702" /><trkpt lat="43.039292" lon="90.718589" /></trkseg></trk></gpx>