<?xml version='1.0' encoding='utf-8'?>
<gpx version="1.1" creator="ProUnbound / OpenStreetMap">
  <trk>
    <name>04 · S09 · на север</name>
    <trkseg>
      <trkpt lat="32.0801344292" lon="117.8158766556" />
      <trkpt lat="32.0818394000" lon="117.8148414000" />
      <trkpt lat="32.0826280000" lon="117.8143895000" />
      <trkpt lat="32.0846385000" lon="117.8133191000" />
      <trkpt lat="32.0856175000" lon="117.8128713000" />
      <trkpt lat="32.0862481000" lon="117.8125817000" />
      <trkpt lat="32.0878445000" lon="117.8118870000" />
      <trkpt lat="32.0889546000" lon="117.8114524000" />
      <trkpt lat="32.0894716000" lon="117.8112593000" />
      <trkpt lat="32.0913447000" lon="117.8106169000" />
      <trkpt lat="32.0931722000" lon="117.8100657000" />
      <trkpt lat="32.0948889000" lon="117.8096205000" />
      <trkpt lat="32.0961364000" lon="117.8093469000" />
      <trkpt lat="32.0979108000" lon="117.8090029000" />
      <trkpt lat="32.0995538000" lon="117.8087595000" />
      <trkpt lat="32.1007080000" lon="117.8086200000" />
      <trkpt lat="32.1017714000" lon="117.8085235000" />
      <trkpt lat="32.1027347000" lon="117.8084439000" />
      <trkpt lat="32.1044473000" lon="117.8083706000" />
      <trkpt lat="32.1057946000" lon="117.8083210000" />
      <trkpt lat="32.1085468000" lon="117.8082197531" />
      <trkpt lat="32.1112990000" lon="117.8081185000" />
      <trkpt lat="32.1116534000" lon="117.8081037000" />
      <trkpt lat="32.1139348500" lon="117.8080200021" />
      <trkpt lat="32.1162163000" lon="117.8079363000" />
      <trkpt lat="32.1167593000" lon="117.8079146000" />
      <trkpt lat="32.1195962000" lon="117.8077834000" />
      <trkpt lat="32.1214344000" lon="117.8076021000" />
      <trkpt lat="32.1232645000" lon="117.8073367000" />
      <trkpt lat="32.1254724000" lon="117.8069325000" />
      <trkpt lat="32.1282382000" lon="117.8062369000" />
      <trkpt lat="32.1303024000" lon="117.8055918000" />
      <trkpt lat="32.1323863000" lon="117.8048241000" />
      <trkpt lat="32.1337367000" lon="117.8042641000" />
      <trkpt lat="32.1354243000" lon="117.8034863000" />
      <trkpt lat="32.1368802000" lon="117.8027507000" />
      <trkpt lat="32.1400190000" lon="117.8011581000" />
      <trkpt lat="32.1431255000" lon="117.7995814000" />
      <trkpt lat="32.1457528000" lon="117.7982859000" />
      <trkpt lat="32.1489036000" lon="117.7969690000" />
      <trkpt lat="32.1513400000" lon="117.7961344000" />
      <trkpt lat="32.1537507000" lon="117.7954429000" />
      <trkpt lat="32.1557772000" lon="117.7949756000" />
      <trkpt lat="32.1569648000" lon="117.7947342000" />
      <trkpt lat="32.1580884000" lon="117.7945455000" />
      <trkpt lat="32.1611935000" lon="117.7941681000" />
      <trkpt lat="32.1618607000" lon="117.7940974000" />
      <trkpt lat="32.1640259000" lon="117.7939980000" />
      <trkpt lat="32.1683121000" lon="117.7940208000" />
      <trkpt lat="32.1686641000" lon="117.7940272000" />
      <trkpt lat="32.1707115000" lon="117.7940648000" />
      <trkpt lat="32.1731413000" lon="117.7940100000" />
      <trkpt lat="32.1744944000" lon="117.7939336000" />
      <trkpt lat="32.1754331000" lon="117.7938505000" />
      <trkpt lat="32.1762633000" lon="117.7937605000" />
      <trkpt lat="32.1778850000" lon="117.7935541000" />
      <trkpt lat="32.1798669000" lon="117.7932081000" />
      <trkpt lat="32.1810383000" lon="117.7929667000" />
      <trkpt lat="32.1820988000" lon="117.7927189000" />
      <trkpt lat="32.1838599000" lon="117.7922479000" />
      <trkpt lat="32.1861715018" lon="117.7915644174" />
      <trkpt lat="32.1884831000" lon="117.7908809000" />
      <trkpt lat="32.1906745017" lon="117.7902282657" />
      <trkpt lat="32.1928659000" lon="117.7895756000" />
      <trkpt lat="32.1931021000" lon="117.7895053000" />
      <trkpt lat="32.1938841000" lon="117.7892733000" />
      <trkpt lat="32.1965158021" lon="117.7885407212" />
      <trkpt lat="32.1991475000" lon="117.7878081000" />
      <trkpt lat="32.1999443000" lon="117.7876331000" />
      <trkpt lat="32.2039173000" lon="117.7869813000" />
      <trkpt lat="32.2042669000" lon="117.7869371000" />
      <trkpt lat="32.2064104000" lon="117.7867520000" />
      <trkpt lat="32.2086492000" lon="117.7866608000" />
      <trkpt lat="32.2125227000" lon="117.7866378510" />
      <trkpt lat="32.2163962000" lon="117.7866149000" />
      <trkpt lat="32.2167531000" lon="117.7866125000" />
      <trkpt lat="32.2209248000" lon="117.7865672000" />
      <trkpt lat="32.2230591000" lon="117.7864583000" />
      <trkpt lat="32.2251228000" lon="117.7862880000" />
      <trkpt lat="32.2262040000" lon="117.7861539000" />
      <trkpt lat="32.2272700000" lon="117.7859895000" />
      <trkpt lat="32.2289971000" lon="117.7856952000" />
      <trkpt lat="32.2306626000" lon="117.7853540000" />
      <trkpt lat="32.2339423000" lon="117.7844989000" />
      <trkpt lat="32.2363542000" lon="117.7837333000" />
      <trkpt lat="32.2402273857" lon="117.7824552180" />
      <trkpt lat="32.2441005586" lon="117.7811770271" />
      <trkpt lat="32.2479737186" lon="117.7798987271" />
      <trkpt lat="32.2518468657" lon="117.7786203181" />
      <trkpt lat="32.2557200000" lon="117.7773418000" />
      <trkpt lat="32.2591167000" lon="117.7764385000" />
      <trkpt lat="32.2607329000" lon="117.7761143000" />
      <trkpt lat="32.2628335000" lon="117.7757661000" />
      <trkpt lat="32.2658455000" lon="117.7754678000" />
      <trkpt lat="32.2691553000" lon="117.7754009000" />
      <trkpt lat="32.2700557000" lon="117.7754317000" />
      <trkpt lat="32.2710366000" lon="117.7754679000" />
      <trkpt lat="32.2718280000" lon="117.7755189000" />
      <trkpt lat="32.2753865006" lon="117.7759067348" />
      <trkpt lat="32.2789450000" lon="117.7762946000" />
      <trkpt lat="32.2816669503" lon="117.7765524923" />
      <trkpt lat="32.2843889000" lon="117.7768104000" />
      <trkpt lat="32.2869145000" lon="117.7769157000" />
      <trkpt lat="32.2903579000" lon="117.7769044000" />
      <trkpt lat="32.2928125000" lon="117.7767675000" />
      <trkpt lat="32.2948715000" lon="117.7765822000" />
      <trkpt lat="32.2969821000" lon="117.7762981000" />
      <trkpt lat="32.2990815000" lon="117.7759896000" />
      <trkpt lat="32.3004112000" lon="117.7757844000" />
      <trkpt lat="32.3025697000" lon="117.7754504000" />
      <trkpt lat="32.3031026000" lon="117.7753691000" />
      <trkpt lat="32.3037385000" lon="117.7752619000" />
      <trkpt lat="32.3067022000" lon="117.7747987000" />
      <trkpt lat="32.3091628504" lon="117.7744614092" />
      <trkpt lat="32.3116235000" lon="117.7741241000" />
      <trkpt lat="32.3144173000" lon="117.7738832000" />
      <trkpt lat="32.3162433000" lon="117.7737994000" />
      <trkpt lat="32.3187590000" lon="117.7738315000" />
      <trkpt lat="32.3204627000" lon="117.7739291000" />
      <trkpt lat="32.3230277000" lon="117.7741544000" />
      <trkpt lat="32.3244898000" lon="117.7743122000" />
      <trkpt lat="32.3255783000" lon="117.7744921000" />
      <trkpt lat="32.3269478000" lon="117.7747089000" />
      <trkpt lat="32.3288742000" lon="117.7750920000" />
      <trkpt lat="32.3313178000" lon="117.7756733000" />
      <trkpt lat="32.3348296000" lon="117.7766977000" />
      <trkpt lat="32.3378400000" lon="117.7778146000" />
      <trkpt lat="32.3400277038" lon="117.7787931263" />
      <trkpt lat="32.3422154000" lon="117.7797717000" />
      <trkpt lat="32.3442285937" lon="117.7808625613" />
    </trkseg>
  </trk>
</gpx>