<?xml version='1.0' encoding='utf-8'?>
<gpx version="1.1" creator="ProUnbound / OpenStreetMap">
  <trk>
    <name>03 · G50 · на север</name>
    <trkseg>
      <trkpt lat="30.1878170516" lon="116.1083955433" />
      <trkpt lat="30.1901348259" lon="116.1085520180" />
      <trkpt lat="30.1924526000" lon="116.1087085000" />
      <trkpt lat="30.1958897000" lon="116.1090106000" />
      <trkpt lat="30.1970135000" lon="116.1091429000" />
      <trkpt lat="30.1972938000" lon="116.1091768000" />
      <trkpt lat="30.2007413000" lon="116.1096807000" />
      <trkpt lat="30.2028626000" lon="116.1100385000" />
      <trkpt lat="30.2041826000" lon="116.1103165000" />
      <trkpt lat="30.2061139000" lon="116.1107772000" />
      <trkpt lat="30.2074942000" lon="116.1111533000" />
      <trkpt lat="30.2088551000" lon="116.1115602000" />
      <trkpt lat="30.2090265000" lon="116.1116146000" />
      <trkpt lat="30.2099526000" lon="116.1119085000" />
      <trkpt lat="30.2117467000" lon="116.1125525000" />
      <trkpt lat="30.2141175033" lon="116.1134798777" />
      <trkpt lat="30.2164883000" lon="116.1144073000" />
      <trkpt lat="30.2177579000" lon="116.1148989000" />
      <trkpt lat="30.2194586000" lon="116.1155985000" />
      <trkpt lat="30.2205935000" lon="116.1161133000" />
      <trkpt lat="30.2221126000" lon="116.1169385000" />
      <trkpt lat="30.2232726000" lon="116.1177585000" />
      <trkpt lat="30.2245226000" lon="116.1188285000" />
      <trkpt lat="30.2255026000" lon="116.1198285000" />
      <trkpt lat="30.2265726000" lon="116.1210885000" />
      <trkpt lat="30.2271726000" lon="116.1218985000" />
      <trkpt lat="30.2274891000" lon="116.1223515000" />
      <trkpt lat="30.2285026000" lon="116.1238285000" />
      <trkpt lat="30.2303352784" lon="116.1265620490" />
      <trkpt lat="30.2321679000" lon="116.1292957000" />
      <trkpt lat="30.2338926000" lon="116.1318685000" />
      <trkpt lat="30.2340526000" lon="116.1320685000" />
      <trkpt lat="30.2360193322" lon="116.1350050492" />
      <trkpt lat="30.2379859988" lon="116.1379417158" />
      <trkpt lat="30.2399526000" lon="116.1408785000" />
      <trkpt lat="30.2409926000" lon="116.1423285000" />
      <trkpt lat="30.2418926000" lon="116.1435085000" />
      <trkpt lat="30.2434126000" lon="116.1453585000" />
      <trkpt lat="30.2448126000" lon="116.1469085000" />
      <trkpt lat="30.2462426000" lon="116.1483585000" />
      <trkpt lat="30.2479626000" lon="116.1499585000" />
      <trkpt lat="30.2496126000" lon="116.1515985000" />
      <trkpt lat="30.2513526000" lon="116.1534985000" />
      <trkpt lat="30.2526726000" lon="116.1550685000" />
      <trkpt lat="30.2543726000" lon="116.1573085000" />
      <trkpt lat="30.2556626000" lon="116.1591885000" />
      <trkpt lat="30.2578926000" lon="116.1623185000" />
      <trkpt lat="30.2588126000" lon="116.1635385000" />
      <trkpt lat="30.2599626000" lon="116.1649985000" />
      <trkpt lat="30.2613526000" lon="116.1666485000" />
      <trkpt lat="30.2642626000" lon="116.1699085000" />
      <trkpt lat="30.2654526000" lon="116.1713285000" />
      <trkpt lat="30.2681526353" lon="116.1743784161" />
      <trkpt lat="30.2708526000" lon="116.1774285000" />
      <trkpt lat="30.2721526000" lon="116.1789785000" />
      <trkpt lat="30.2735826000" lon="116.1807485000" />
      <trkpt lat="30.2752826000" lon="116.1829785000" />
      <trkpt lat="30.2769226000" lon="116.1852685000" />
      <trkpt lat="30.2785926000" lon="116.1877085000" />
      <trkpt lat="30.2800826194" lon="116.1899684657" />
      <trkpt lat="30.2815726000" lon="116.1922285000" />
      <trkpt lat="30.2833126000" lon="116.1945885000" />
      <trkpt lat="30.2845426000" lon="116.1961485000" />
      <trkpt lat="30.2855126000" lon="116.1972585000" />
      <trkpt lat="30.2868426000" lon="116.1987385000" />
      <trkpt lat="30.2878926000" lon="116.1998185000" />
      <trkpt lat="30.2891626000" lon="116.2010285000" />
      <trkpt lat="30.2904826000" lon="116.2022185000" />
      <trkpt lat="30.2923326000" lon="116.2037485000" />
      <trkpt lat="30.2938226000" lon="116.2048585000" />
      <trkpt lat="30.2953726000" lon="116.2059485000" />
      <trkpt lat="30.2956844000" lon="116.2061492000" />
      <trkpt lat="30.2967216000" lon="116.2068168000" />
      <trkpt lat="30.2978626000" lon="116.2075285000" />
      <trkpt lat="30.3000326000" lon="116.2087285000" />
      <trkpt lat="30.3040292962" lon="116.2106983394" />
      <trkpt lat="30.3080259628" lon="116.2126683394" />
      <trkpt lat="30.3120226000" lon="116.2146385000" />
      <trkpt lat="30.3144326000" lon="116.2156985000" />
      <trkpt lat="30.3163726000" lon="116.2163885000" />
      <trkpt lat="30.3176226000" lon="116.2167685000" />
      <trkpt lat="30.3188426000" lon="116.2170885000" />
      <trkpt lat="30.3218426000" lon="116.2176985000" />
      <trkpt lat="30.3232726000" lon="116.2181385000" />
      <trkpt lat="30.3246426000" lon="116.2186985000" />
      <trkpt lat="30.3258826000" lon="116.2194385000" />
      <trkpt lat="30.3268626000" lon="116.2201185000" />
      <trkpt lat="30.3279826000" lon="116.2210685000" />
      <trkpt lat="30.3288526000" lon="116.2219685000" />
      <trkpt lat="30.3295226000" lon="116.2227785000" />
      <trkpt lat="30.3317826000" lon="116.2257785000" />
      <trkpt lat="30.3330126000" lon="116.2274885000" />
      <trkpt lat="30.3331826000" lon="116.2276785000" />
      <trkpt lat="30.3345626000" lon="116.2295585000" />
      <trkpt lat="30.3362126000" lon="116.2318585000" />
      <trkpt lat="30.3372426000" lon="116.2332285000" />
      <trkpt lat="30.3387026000" lon="116.2350485000" />
      <trkpt lat="30.3398626000" lon="116.2363885000" />
      <trkpt lat="30.3406526000" lon="116.2372385000" />
      <trkpt lat="30.3421526000" lon="116.2387385000" />
      <trkpt lat="30.3433426000" lon="116.2398485000" />
      <trkpt lat="30.3440126000" lon="116.2404285000" />
      <trkpt lat="30.3455026000" lon="116.2415785000" />
      <trkpt lat="30.3465726000" lon="116.2424785000" />
      <trkpt lat="30.3492426000" lon="116.2445085000" />
      <trkpt lat="30.3501726000" lon="116.2451785000" />
      <trkpt lat="30.3536827000" lon="116.2481685000" />
      <trkpt lat="30.3547827000" lon="116.2491485000" />
      <trkpt lat="30.3566627000" lon="116.2509485000" />
      <trkpt lat="30.3581727000" lon="116.2524585000" />
      <trkpt lat="30.3594727000" lon="116.2538085000" />
      <trkpt lat="30.3608727000" lon="116.2553885000" />
      <trkpt lat="30.3622127000" lon="116.2570185000" />
      <trkpt lat="30.3632027000" lon="116.2582885000" />
      <trkpt lat="30.3643227000" lon="116.2598185000" />
      <trkpt lat="30.3650827000" lon="116.2609185000" />
      <trkpt lat="30.3662227000" lon="116.2626885000" />
      <trkpt lat="30.3678327000" lon="116.2653785000" />
      <trkpt lat="30.3688127000" lon="116.2671985000" />
      <trkpt lat="30.3696427000" lon="116.2688785000" />
      <trkpt lat="30.3708127000" lon="116.2714385000" />
      <trkpt lat="30.3727326000" lon="116.2760865000" />
      <trkpt lat="30.3742675998" lon="116.2797035432" />
      <trkpt lat="30.3758025000" lon="116.2833207000" />
      <trkpt lat="30.3768801000" lon="116.2856148000" />
      <trkpt lat="30.3775477000" lon="116.2868414000" />
      <trkpt lat="30.3780629000" lon="116.2876855000" />
      <trkpt lat="30.3786870000" lon="116.2885921000" />
      <trkpt lat="30.3793139000" lon="116.2893887000" />
      <trkpt lat="30.3798403000" lon="116.2900056000" />
      <trkpt lat="30.3802957000" lon="116.2905090000" />
      <trkpt lat="30.3810368000" lon="116.2912544000" />
      <trkpt lat="30.3817767000" lon="116.2919250000" />
      <trkpt lat="30.3830104000" lon="116.2928635000" />
      <trkpt lat="30.3832672000" lon="116.2930351000" />
      <trkpt lat="30.3835356000" lon="116.2932202000" />
      <trkpt lat="30.3850250000" lon="116.2941241000" />
      <trkpt lat="30.3862589000" lon="116.2947652000" />
      <trkpt lat="30.3877627000" lon="116.2955285000" />
      <trkpt lat="30.3906083589" lon="116.2968064332" />
    </trkseg>
  </trk>
</gpx>