<?xml version='1.0' encoding='utf-8'?>
<gpx version="1.1" creator="ProUnbound / OpenStreetMap">
  <trk>
    <name>07 · S22 · на юг</name>
    <trkseg>
      <trkpt lat="32.2721429182" lon="118.4236044359" />
      <trkpt lat="32.2715438000" lon="118.4233683000" />
      <trkpt lat="32.2699472000" lon="118.4226816000" />
      <trkpt lat="32.2684050000" lon="118.4218877000" />
      <trkpt lat="32.2672075000" lon="118.4212547000" />
      <trkpt lat="32.2656018000" lon="118.4202569000" />
      <trkpt lat="32.2639008000" lon="118.4191250000" />
      <trkpt lat="32.2625354000" lon="118.4181004000" />
      <trkpt lat="32.2614376000" lon="118.4172045000" />
      <trkpt lat="32.2599315000" lon="118.4159064000" />
      <trkpt lat="32.2591356000" lon="118.4150793000" />
      <trkpt lat="32.2588169000" lon="118.4147779000" />
      <trkpt lat="32.2585071000" lon="118.4144848000" />
      <trkpt lat="32.2567787000" lon="118.4126394000" />
      <trkpt lat="32.2561459000" lon="118.4119004000" />
      <trkpt lat="32.2550049000" lon="118.4104293000" />
      <trkpt lat="32.2532538000" lon="118.4082513000" />
      <trkpt lat="32.2519472000" lon="118.4068458000" />
      <trkpt lat="32.2505590000" lon="118.4053653000" />
      <trkpt lat="32.2488985000" lon="118.4038203000" />
      <trkpt lat="32.2478278000" lon="118.4029084000" />
      <trkpt lat="32.2472307000" lon="118.4024031000" />
      <trkpt lat="32.2469022000" lon="118.4021252000" />
      <trkpt lat="32.2457680000" lon="118.4011810000" />
      <trkpt lat="32.2447789000" lon="118.4004085000" />
      <trkpt lat="32.2432181000" lon="118.3993464000" />
      <trkpt lat="32.2413760000" lon="118.3981018000" />
      <trkpt lat="32.2399694000" lon="118.3972543000" />
      <trkpt lat="32.2378913048" lon="118.3961491747" />
      <trkpt lat="32.2358132000" lon="118.3950441000" />
      <trkpt lat="32.2330089000" lon="118.3934992000" />
      <trkpt lat="32.2299381000" lon="118.3919070000" />
      <trkpt lat="32.2293878000" lon="118.3916216000" />
      <trkpt lat="32.2255305000" lon="118.3894973000" />
      <trkpt lat="32.2245578000" lon="118.3889004000" />
      <trkpt lat="32.2229256000" lon="118.3877378000" />
      <trkpt lat="32.2215823000" lon="118.3866971000" />
      <trkpt lat="32.2206474000" lon="118.3859139000" />
      <trkpt lat="32.2193948000" lon="118.3847659000" />
      <trkpt lat="32.2183964000" lon="118.3837681000" />
      <trkpt lat="32.2174342000" lon="118.3827918000" />
      <trkpt lat="32.2155825000" lon="118.3809250000" />
      <trkpt lat="32.2138306000" lon="118.3794337000" />
      <trkpt lat="32.2134908000" lon="118.3791575000" />
      <trkpt lat="32.2133667000" lon="118.3790567000" />
      <trkpt lat="32.2125235000" lon="118.3783715000" />
      <trkpt lat="32.2104901000" lon="118.3769660000" />
      <trkpt lat="32.2097462000" lon="118.3765164000" />
      <trkpt lat="32.2093248000" lon="118.3762617000" />
      <trkpt lat="32.2085021000" lon="118.3757644000" />
      <trkpt lat="32.2075186000" lon="118.3752490000" />
      <trkpt lat="32.2065571000" lon="118.3748091000" />
      <trkpt lat="32.2036392000" lon="118.3735858000" />
      <trkpt lat="32.2010366000" lon="118.3727662000" />
      <trkpt lat="32.1997076000" lon="118.3724137000" />
      <trkpt lat="32.1993656000" lon="118.3723282000" />
      <trkpt lat="32.1989502000" lon="118.3722032000" />
      <trkpt lat="32.1978169000" lon="118.3718484000" />
      <trkpt lat="32.1963915000" lon="118.3713978000" />
      <trkpt lat="32.1953383000" lon="118.3710330000" />
      <trkpt lat="32.1934716000" lon="118.3703528000" />
      <trkpt lat="32.1920743000" lon="118.3697455000" />
      <trkpt lat="32.1902629000" lon="118.3688443000" />
      <trkpt lat="32.1884107000" lon="118.3679324000" />
      <trkpt lat="32.1862315000" lon="118.3666878000" />
      <trkpt lat="32.1849421000" lon="118.3659690000" />
      <trkpt lat="32.1831533000" lon="118.3647244000" />
      <trkpt lat="32.1818639000" lon="118.3638232000" />
      <trkpt lat="32.1803656000" lon="118.3627289000" />
      <trkpt lat="32.1779508000" lon="118.3609754000" />
      <trkpt lat="32.1768702000" lon="118.3602592000" />
      <trkpt lat="32.1752470000" lon="118.3592615000" />
      <trkpt lat="32.1743343000" lon="118.3587438000" />
      <trkpt lat="32.1731833000" lon="118.3581430000" />
      <trkpt lat="32.1713670000" lon="118.3572713000" />
      <trkpt lat="32.1692168000" lon="118.3562455000" />
      <trkpt lat="32.1690459000" lon="118.3561748000" />
      <trkpt lat="32.1687696000" lon="118.3560606000" />
      <trkpt lat="32.1674186000" lon="118.3555020000" />
      <trkpt lat="32.1651324000" lon="118.3546523000" />
      <trkpt lat="32.1633535000" lon="118.3541639000" />
      <trkpt lat="32.1617913000" lon="118.3536918000" />
      <trkpt lat="32.1599294000" lon="118.3532198000" />
      <trkpt lat="32.1583036000" lon="118.3528979000" />
      <trkpt lat="32.1565052000" lon="118.3526082000" />
      <trkpt lat="32.1545886000" lon="118.3523614000" />
      <trkpt lat="32.1514185000" lon="118.3520825000" />
      <trkpt lat="32.1503354000" lon="118.3519284000" />
      <trkpt lat="32.1501785000" lon="118.3519061000" />
      <trkpt lat="32.1496836000" lon="118.3518357000" />
      <trkpt lat="32.1484118000" lon="118.3516533000" />
      <trkpt lat="32.1464088000" lon="118.3512510000" />
      <trkpt lat="32.1449509000" lon="118.3509238000" />
      <trkpt lat="32.1433884000" lon="118.3504517000" />
      <trkpt lat="32.1424708000" lon="118.3501728000" />
      <trkpt lat="32.1403723000" lon="118.3495076000" />
      <trkpt lat="32.1393338000" lon="118.3491957000" />
      <trkpt lat="32.1384563000" lon="118.3489321000" />
      <trkpt lat="32.1348487000" lon="118.3478124000" />
      <trkpt lat="32.1324684000" lon="118.3470721000" />
      <trkpt lat="32.1321836000" lon="118.3469873000" />
      <trkpt lat="32.1317210000" lon="118.3468496000" />
      <trkpt lat="32.1293338000" lon="118.3461387000" />
      <trkpt lat="32.1281118000" lon="118.3457623000" />
      <trkpt lat="32.1279211000" lon="118.3457035000" />
      <trkpt lat="32.1274531000" lon="118.3455594000" />
      <trkpt lat="32.1235655000" lon="118.3443211000" />
      <trkpt lat="32.1234382000" lon="118.3442806000" />
      <trkpt lat="32.1223068000" lon="118.3439971000" />
      <trkpt lat="32.1201309000" lon="118.3432268000" />
      <trkpt lat="32.1191770000" lon="118.3428823000" />
      <trkpt lat="32.1181409000" lon="118.3425080000" />
      <trkpt lat="32.1154420000" lon="118.3413600000" />
      <trkpt lat="32.1122161000" lon="118.3397829000" />
      <trkpt lat="32.1119544000" lon="118.3396601000" />
      <trkpt lat="32.1099987000" lon="118.3387422000" />
      <trkpt lat="32.1084538000" lon="118.3381199000" />
      <trkpt lat="32.1069361000" lon="118.3376693000" />
      <trkpt lat="32.1063671000" lon="118.3375214000" />
      <trkpt lat="32.1054911000" lon="118.3372938000" />
      <trkpt lat="32.1039552000" lon="118.3370899000" />
      <trkpt lat="32.1020376000" lon="118.3369290000" />
      <trkpt lat="32.1015589000" lon="118.3369436000" />
      <trkpt lat="32.1009833000" lon="118.3369612000" />
      <trkpt lat="32.0991838000" lon="118.3370470000" />
      <trkpt lat="32.0969207000" lon="118.3374332000" />
      <trkpt lat="32.0954123000" lon="118.3378564000" />
      <trkpt lat="32.0944426000" lon="118.3380983000" />
      <trkpt lat="32.0937007000" lon="118.3382728000" />
      <trkpt lat="32.0916676000" lon="118.3388028000" />
      <trkpt lat="32.0873936000" lon="118.3399148000" />
      <trkpt lat="32.0866955000" lon="118.3400594000" />
      <trkpt lat="32.0851809000" lon="118.3403731000" />
      <trkpt lat="32.0846316000" lon="118.3405119000" />
      <trkpt lat="32.0824136000" lon="118.3409738000" />
      <trkpt lat="32.0796955000" lon="118.3413922000" />
      <trkpt lat="32.0773013000" lon="118.3417323000" />
      <trkpt lat="32.0767501000" lon="118.3418106000" />
      <trkpt lat="32.0731682000" lon="118.3420788000" />
      <trkpt lat="32.0689679000" lon="118.3421325000" />
      <trkpt lat="32.0663404000" lon="118.3420788000" />
      <trkpt lat="32.0624398000" lon="118.3418750000" />
      <trkpt lat="32.0612111000" lon="118.3418916000" />
      <trkpt lat="32.0601954000" lon="118.3419054000" />
      <trkpt lat="32.0593604000" lon="118.3419380000" />
      <trkpt lat="32.0578571000" lon="118.3420037000" />
      <trkpt lat="32.0559294000" lon="118.3421325000" />
      <trkpt lat="32.0537471000" lon="118.3424329000" />
      <trkpt lat="32.0521376000" lon="118.3426367000" />
      <trkpt lat="32.0515662000" lon="118.3427259000" />
      <trkpt lat="32.0508560000" lon="118.3428367000" />
      <trkpt lat="32.0504189000" lon="118.3429049000" />
      <trkpt lat="32.0488223000" lon="118.3432629000" />
      <trkpt lat="32.0483271000" lon="118.3433606000" />
      <trkpt lat="32.0467724000" lon="118.3436805000" />
      <trkpt lat="32.0464487000" lon="118.3437495000" />
      <trkpt lat="32.0450717000" lon="118.3439993000" />
      <trkpt lat="32.0440975000" lon="118.3441936000" />
      <trkpt lat="32.0439412000" lon="118.3442248000" />
      <trkpt lat="32.0431643000" lon="118.3443797000" />
      <trkpt lat="32.0425435000" lon="118.3445035000" />
      <trkpt lat="32.0401653009" lon="118.3449809624" />
      <trkpt lat="32.0377871000" lon="118.3454584000" />
      <trkpt lat="32.0343310000" lon="118.3461129000" />
      <trkpt lat="32.0325902000" lon="118.3464675000" />
      <trkpt lat="32.0310658000" lon="118.3467781000" />
      <trkpt lat="32.0296105000" lon="118.3470570000" />
      <trkpt lat="32.0271000000" lon="118.3474969000" />
      <trkpt lat="32.0243167000" lon="118.3478402000" />
      <trkpt lat="32.0233980000" lon="118.3478831000" />
      <trkpt lat="32.0212847264" lon="118.3479963763" />
    </trkseg>
  </trk>
</gpx>