<?xml version='1.0' encoding='utf-8'?>
<gpx version="1.1" creator="ProUnbound / OpenStreetMap">
  <trk>
    <name>10 · S01 · на восток</name>
    <trkseg>
      <trkpt lat="32.7311147564" lon="118.8646096836" />
      <trkpt lat="32.7300759000" lon="118.8655839000" />
      <trkpt lat="32.7282772000" lon="118.8671366000" />
      <trkpt lat="32.7261173000" lon="118.8690011000" />
      <trkpt lat="32.7248729000" lon="118.8699874000" />
      <trkpt lat="32.7236969000" lon="118.8708564000" />
      <trkpt lat="32.7228332000" lon="118.8715074000" />
      <trkpt lat="32.7205988000" lon="118.8730869000" />
      <trkpt lat="32.7185557000" lon="118.8744295000" />
      <trkpt lat="32.7166961000" lon="118.8755659000" />
      <trkpt lat="32.7165699000" lon="118.8756430000" />
      <trkpt lat="32.7158975000" lon="118.8760539000" />
      <trkpt lat="32.7128867000" lon="118.8777241000" />
      <trkpt lat="32.7103349000" lon="118.8790169000" />
      <trkpt lat="32.7080894000" lon="118.8800267000" />
      <trkpt lat="32.7068078000" lon="118.8805720000" />
      <trkpt lat="32.7058769000" lon="118.8809572000" />
      <trkpt lat="32.7047992000" lon="118.8813880000" />
      <trkpt lat="32.7025718000" lon="118.8822055000" />
      <trkpt lat="32.7016193000" lon="118.8825223000" />
      <trkpt lat="32.6997568000" lon="118.8831394000" />
      <trkpt lat="32.6979686000" lon="118.8836425000" />
      <trkpt lat="32.6960793000" lon="118.8841462000" />
      <trkpt lat="32.6932299517" lon="118.8847921206" />
      <trkpt lat="32.6903806000" lon="118.8854380000" />
      <trkpt lat="32.6880753000" lon="118.8860653000" />
      <trkpt lat="32.6880030000" lon="118.8860965000" />
      <trkpt lat="32.6845100000" lon="118.8872561000" />
      <trkpt lat="32.6832545000" lon="118.8876686000" />
      <trkpt lat="32.6817246000" lon="118.8883132000" />
      <trkpt lat="32.6802399000" lon="118.8889765000" />
      <trkpt lat="32.6795918000" lon="118.8892951000" />
      <trkpt lat="32.6787013000" lon="118.8897329000" />
      <trkpt lat="32.6773505000" lon="118.8904285000" />
      <trkpt lat="32.6744159000" lon="118.8920518000" />
      <trkpt lat="32.6731514000" lon="118.8928224000" />
      <trkpt lat="32.6716696000" lon="118.8937689000" />
      <trkpt lat="32.6715745000" lon="118.8938296000" />
      <trkpt lat="32.6715272000" lon="118.8938598000" />
      <trkpt lat="32.6703862000" lon="118.8946498000" />
      <trkpt lat="32.6694806000" lon="118.8953108000" />
      <trkpt lat="32.6682936000" lon="118.8961768000" />
      <trkpt lat="32.6677497000" lon="118.8965985000" />
      <trkpt lat="32.6677222000" lon="118.8966198000" />
      <trkpt lat="32.6667058000" lon="118.8974458000" />
      <trkpt lat="32.6654935000" lon="118.8984460000" />
      <trkpt lat="32.6643778000" lon="118.8994032000" />
      <trkpt lat="32.6632680000" lon="118.9004140000" />
      <trkpt lat="32.6623332000" lon="118.9012886000" />
      <trkpt lat="32.6611436000" lon="118.9024767000" />
      <trkpt lat="32.6600204000" lon="118.9036218000" />
      <trkpt lat="32.6583347000" lon="118.9054600000" />
      <trkpt lat="32.6568091000" lon="118.9072376000" />
      <trkpt lat="32.6552714000" lon="118.9091443000" />
      <trkpt lat="32.6544422000" lon="118.9102392000" />
      <trkpt lat="32.6539132000" lon="118.9109813000" />
      <trkpt lat="32.6523752000" lon="118.9131335000" />
      <trkpt lat="32.6505563000" lon="118.9159487000" />
      <trkpt lat="32.6491061000" lon="118.9183691000" />
      <trkpt lat="32.6478213000" lon="118.9206782000" />
      <trkpt lat="32.6471977000" lon="118.9217130000" />
      <trkpt lat="32.6460662000" lon="118.9235887000" />
      <trkpt lat="32.6441800000" lon="118.9268464000" />
      <trkpt lat="32.6429790000" lon="118.9288554000" />
      <trkpt lat="32.6428221000" lon="118.9291178000" />
      <trkpt lat="32.6425188000" lon="118.9296252000" />
      <trkpt lat="32.6419266000" lon="118.9306095000" />
      <trkpt lat="32.6401718337" lon="118.9335259072" />
      <trkpt lat="32.6384170000" lon="118.9364422000" />
      <trkpt lat="32.6370164000" lon="118.9388824000" />
      <trkpt lat="32.6361084000" lon="118.9403826000" />
      <trkpt lat="32.6354801000" lon="118.9415510000" />
      <trkpt lat="32.6350129000" lon="118.9424705000" />
      <trkpt lat="32.6347169000" lon="118.9430673000" />
      <trkpt lat="32.6340197000" lon="118.9445261000" />
      <trkpt lat="32.6333871000" lon="118.9459721000" />
      <trkpt lat="32.6325325000" lon="118.9480131000" />
      <trkpt lat="32.6319171000" lon="118.9496361000" />
      <trkpt lat="32.6314627000" lon="118.9509588000" />
      <trkpt lat="32.6306990000" lon="118.9533618000" />
      <trkpt lat="32.6300925000" lon="118.9554492000" />
      <trkpt lat="32.6293612000" lon="118.9584465000" />
      <trkpt lat="32.6289486000" lon="118.9604174000" />
      <trkpt lat="32.6286744000" lon="118.9619390000" />
      <trkpt lat="32.6284641000" lon="118.9633239000" />
      <trkpt lat="32.6282635000" lon="118.9647108000" />
      <trkpt lat="32.6280756000" lon="118.9662721000" />
      <trkpt lat="32.6279179000" lon="118.9679293000" />
      <trkpt lat="32.6276503000" lon="118.9714533000" />
      <trkpt lat="32.6276966881" lon="118.9758722288" />
      <trkpt lat="32.6277429214" lon="118.9802911621" />
      <trkpt lat="32.6277890000" lon="118.9847101000" />
      <trkpt lat="32.6278257000" lon="118.9885685000" />
      <trkpt lat="32.6278249000" lon="118.9904295000" />
      <trkpt lat="32.6277538000" lon="118.9925939000" />
      <trkpt lat="32.6274706000" lon="118.9962744000" />
      <trkpt lat="32.6272484000" lon="118.9982959000" />
      <trkpt lat="32.6270024000" lon="119.0000858000" />
      <trkpt lat="32.6265569000" lon="119.0026630000" />
      <trkpt lat="32.6259197000" lon="119.0057864000" />
      <trkpt lat="32.6253345000" lon="119.0079950000" />
      <trkpt lat="32.6242170000" lon="119.0117864000" />
      <trkpt lat="32.6234732000" lon="119.0138167000" />
      <trkpt lat="32.6233784000" lon="119.0140572000" />
      <trkpt lat="32.6223790000" lon="119.0165938000" />
      <trkpt lat="32.6206292200" lon="119.0210875513" />
      <trkpt lat="32.6188792800" lon="119.0255811270" />
      <trkpt lat="32.6171291800" lon="119.0300745270" />
      <trkpt lat="32.6153789200" lon="119.0345677513" />
      <trkpt lat="32.6136285000" lon="119.0390608000" />
      <trkpt lat="32.6131395000" lon="119.0404497000" />
      <trkpt lat="32.6127421000" lon="119.0416554000" />
      <trkpt lat="32.6121743000" lon="119.0435135000" />
      <trkpt lat="32.6119309000" lon="119.0443285000" />
      <trkpt lat="32.6115571000" lon="119.0456554000" />
      <trkpt lat="32.6110347000" lon="119.0476995000" />
      <trkpt lat="32.6104805000" lon="119.0501435000" />
      <trkpt lat="32.6103800000" lon="119.0506369000" />
      <trkpt lat="32.6099764000" lon="119.0527525000" />
      <trkpt lat="32.6095494000" lon="119.0553139000" />
      <trkpt lat="32.6091228000" lon="119.0585061000" />
      <trkpt lat="32.6088324000" lon="119.0612046000" />
      <trkpt lat="32.6083322907" lon="119.0656326189" />
      <trkpt lat="32.6078320260" lon="119.0700605884" />
      <trkpt lat="32.6073316060" lon="119.0744885084" />
      <trkpt lat="32.6068310307" lon="119.0789163790" />
      <trkpt lat="32.6063303000" lon="119.0833442000" />
      <trkpt lat="32.6061616000" lon="119.0845090000" />
      <trkpt lat="32.6059853000" lon="119.0856737000" />
      <trkpt lat="32.6058762000" lon="119.0863130000" />
      <trkpt lat="32.6055388000" lon="119.0880805000" />
      <trkpt lat="32.6051151000" lon="119.0900054000" />
      <trkpt lat="32.6046851000" lon="119.0917302000" />
      <trkpt lat="32.6040521000" lon="119.0940136000" />
      <trkpt lat="32.6032177000" lon="119.0966263000" />
      <trkpt lat="32.6020976000" lon="119.0996103000" />
      <trkpt lat="32.6020263000" lon="119.0997819000" />
      <trkpt lat="32.6012948000" lon="119.1015417000" />
      <trkpt lat="32.6003823000" lon="119.1034599000" />
      <trkpt lat="32.6002076000" lon="119.1038376000" />
      <trkpt lat="32.5995593000" lon="119.1051522000" />
      <trkpt lat="32.5988007000" lon="119.1065831000" />
      <trkpt lat="32.5980573000" lon="119.1078968000" />
      <trkpt lat="32.5974365000" lon="119.1089420000" />
      <trkpt lat="32.5968233000" lon="119.1099241000" />
      <trkpt lat="32.5961390912" lon="119.1109368206" />
    </trkseg>
  </trk>
</gpx>