<?xml version='1.0' encoding='utf-8'?>
<gpx version="1.1" creator="ProUnbound / OpenStreetMap">
  <trk>
    <name>09 · S12 · на восток</name>
    <trkseg>
      <trkpt lat="32.4127144152" lon="117.4851984069" />
      <trkpt lat="32.4127127000" lon="117.4852871000" />
      <trkpt lat="32.4126395000" lon="117.4885856000" />
      <trkpt lat="32.4126395000" lon="117.4917315000" />
      <trkpt lat="32.4128450000" lon="117.4948513000" />
      <trkpt lat="32.4132300000" lon="117.4976632000" />
      <trkpt lat="32.4138064000" lon="117.5018055000" />
      <trkpt lat="32.4144976000" lon="117.5067787000" />
      <trkpt lat="32.4146477000" lon="117.5085147000" />
      <trkpt lat="32.4146727000" lon="117.5088030000" />
      <trkpt lat="32.4147658000" lon="117.5098803000" />
      <trkpt lat="32.4147914000" lon="117.5126664000" />
      <trkpt lat="32.4148042000" lon="117.5159111000" />
      <trkpt lat="32.4148111966" lon="117.5193478997" />
      <trkpt lat="32.4148181000" lon="117.5227847000" />
      <trkpt lat="32.4147850000" lon="117.5266963000" />
      <trkpt lat="32.4148371000" lon="117.5282242000" />
      <trkpt lat="32.4148707000" lon="117.5290813000" />
      <trkpt lat="32.4149839000" lon="117.5324009000" />
      <trkpt lat="32.4152947000" lon="117.5350192000" />
      <trkpt lat="32.4155574000" lon="117.5370438000" />
      <trkpt lat="32.4159053000" lon="117.5393481000" />
      <trkpt lat="32.4164559000" lon="117.5423719000" />
      <trkpt lat="32.4171093000" lon="117.5457736000" />
      <trkpt lat="32.4173636000" lon="117.5470651000" />
      <trkpt lat="32.4174688000" lon="117.5475892000" />
      <trkpt lat="32.4182006000" lon="117.5521389000" />
      <trkpt lat="32.4185716000" lon="117.5544886000" />
      <trkpt lat="32.4189426000" lon="117.5567619000" />
      <trkpt lat="32.4191470000" lon="117.5584870000" />
      <trkpt lat="32.4193515000" lon="117.5606817000" />
      <trkpt lat="32.4194409000" lon="117.5628158000" />
      <trkpt lat="32.4194665000" lon="117.5644534000" />
      <trkpt lat="32.4195068000" lon="117.5659998000" />
      <trkpt lat="32.4195150000" lon="117.5663169000" />
      <trkpt lat="32.4195305000" lon="117.5669122000" />
      <trkpt lat="32.4196203000" lon="117.5701599000" />
      <trkpt lat="32.4197098000" lon="117.5726934000" />
      <trkpt lat="32.4197740000" lon="117.5754251000" />
      <trkpt lat="32.4198765000" lon="117.5777649000" />
      <trkpt lat="32.4198845000" lon="117.5778820000" />
      <trkpt lat="32.4198992000" lon="117.5780951000" />
      <trkpt lat="32.4200696000" lon="117.5805755000" />
      <trkpt lat="32.4203235000" lon="117.5834536000" />
      <trkpt lat="32.4206137000" lon="117.5861181000" />
      <trkpt lat="32.4209950000" lon="117.5887643000" />
      <trkpt lat="32.4213884000" lon="117.5906148000" />
      <trkpt lat="32.4214574000" lon="117.5909391000" />
      <trkpt lat="32.4216126000" lon="117.5916694000" />
      <trkpt lat="32.4224288000" lon="117.5946345000" />
      <trkpt lat="32.4234262000" lon="117.5982222000" />
      <trkpt lat="32.4248586000" lon="117.6023249000" />
      <trkpt lat="32.4261627000" lon="117.6060157000" />
      <trkpt lat="32.4268866000" lon="117.6080741000" />
      <trkpt lat="32.4275553000" lon="117.6101296000" />
      <trkpt lat="32.4278925000" lon="117.6113627000" />
      <trkpt lat="32.4279355000" lon="117.6115200000" />
      <trkpt lat="32.4283868000" lon="117.6131707000" />
      <trkpt lat="32.4292005000" lon="117.6167695000" />
      <trkpt lat="32.4297251000" lon="117.6197272000" />
      <trkpt lat="32.4303039000" lon="117.6231133000" />
      <trkpt lat="32.4305385000" lon="117.6254981000" />
      <trkpt lat="32.4308309000" lon="117.6293333000" />
      <trkpt lat="32.4308309000" lon="117.6339392000" />
      <trkpt lat="32.4306904000" lon="117.6376488000" />
      <trkpt lat="32.4301302000" lon="117.6426901000" />
      <trkpt lat="32.4298629000" lon="117.6442854000" />
      <trkpt lat="32.4297695000" lon="117.6448813000" />
      <trkpt lat="32.4294401000" lon="117.6466645000" />
      <trkpt lat="32.4290351000" lon="117.6485371000" />
      <trkpt lat="32.4284599000" lon="117.6509658000" />
      <trkpt lat="32.4281390000" lon="117.6521606000" />
      <trkpt lat="32.4275445000" lon="117.6540819000" />
      <trkpt lat="32.4270728000" lon="117.6556255000" />
      <trkpt lat="32.4263244000" lon="117.6577567000" />
      <trkpt lat="32.4252849000" lon="117.6603829000" />
      <trkpt lat="32.4247824000" lon="117.6617197000" />
      <trkpt lat="32.4234760000" lon="117.6646335000" />
      <trkpt lat="32.4229534000" lon="117.6659400000" />
      <trkpt lat="32.4226153000" lon="117.6667698000" />
      <trkpt lat="32.4206470000" lon="117.6714723000" />
      <trkpt lat="32.4193001000" lon="117.6747695000" />
      <trkpt lat="32.4179908000" lon="117.6784952000" />
      <trkpt lat="32.4170408000" lon="117.6821755000" />
      <trkpt lat="32.4162839000" lon="117.6858075000" />
      <trkpt lat="32.4156913000" lon="117.6895818000" />
      <trkpt lat="32.4151914000" lon="117.6926587000" />
      <trkpt lat="32.4145964000" lon="117.6954922000" />
      <trkpt lat="32.4142515000" lon="117.6970661000" />
      <trkpt lat="32.4135713000" lon="117.6994213000" />
      <trkpt lat="32.4131209000" lon="117.7008706000" />
      <trkpt lat="32.4125088000" lon="117.7026650000" />
      <trkpt lat="32.4115512000" lon="117.7053117000" />
      <trkpt lat="32.4105234000" lon="117.7077132000" />
      <trkpt lat="32.4101572000" lon="117.7085688000" />
      <trkpt lat="32.4091483000" lon="117.7108225000" />
      <trkpt lat="32.4075381000" lon="117.7135775000" />
      <trkpt lat="32.4060801000" lon="117.7159862000" />
      <trkpt lat="32.4045518000" lon="117.7180976000" />
      <trkpt lat="32.4037235000" lon="117.7192594000" />
      <trkpt lat="32.4018089000" lon="117.7214924000" />
      <trkpt lat="32.3995007000" lon="117.7241655000" />
      <trkpt lat="32.3973075000" lon="117.7268846000" />
      <trkpt lat="32.3957398000" lon="117.7288782000" />
      <trkpt lat="32.3946692000" lon="117.7304628000" />
      <trkpt lat="32.3936704000" lon="117.7319411000" />
      <trkpt lat="32.3921630000" lon="117.7345865000" />
      <trkpt lat="32.3896952000" lon="117.7388999000" />
      <trkpt lat="32.3895331000" lon="117.7391831000" />
      <trkpt lat="32.3883652216" lon="117.7415204302" />
      <trkpt lat="32.3871973000" lon="117.7438577000" />
      <trkpt lat="32.3852308000" lon="117.7470196000" />
      <trkpt lat="32.3837018000" lon="117.7492066000" />
      <trkpt lat="32.3818123000" lon="117.7516460000" />
      <trkpt lat="32.3794484000" lon="117.7546160000" />
      <trkpt lat="32.3777982000" lon="117.7562963000" />
      <trkpt lat="32.3757195000" lon="117.7583162000" />
      <trkpt lat="32.3734100000" lon="117.7603747000" />
      <trkpt lat="32.3710975000" lon="117.7621715000" />
      <trkpt lat="32.3694058000" lon="117.7634207000" />
      <trkpt lat="32.3664920000" lon="117.7661805000" />
      <trkpt lat="32.3643658000" lon="117.7686978000" />
      <trkpt lat="32.3624063000" lon="117.7709747000" />
      <trkpt lat="32.3609860000" lon="117.7727855000" />
      <trkpt lat="32.3601752825" lon="117.7741069934" />
    </trkseg>
  </trk>
</gpx>