<?xml version='1.0' encoding='utf-8'?>
<gpx version="1.1" creator="ProUnbound / OpenStreetMap">
  <trk>
    <name>02 · G42 · на восток</name>
    <trkseg>
      <trkpt lat="32.0366178202" lon="119.6039707230" />
      <trkpt lat="32.0361541000" lon="119.6053022000" />
      <trkpt lat="32.0351252000" lon="119.6079962000" />
      <trkpt lat="32.0336398000" lon="119.6115079000" />
      <trkpt lat="32.0328382000" lon="119.6132679000" />
      <trkpt lat="32.0319214000" lon="119.6152020000" />
      <trkpt lat="32.0306023000" lon="119.6177826000" />
      <trkpt lat="32.0304155000" lon="119.6181341000" />
      <trkpt lat="32.0301590000" lon="119.6186265000" />
      <trkpt lat="32.0293494000" lon="119.6200838000" />
      <trkpt lat="32.0285205000" lon="119.6215422000" />
      <trkpt lat="32.0277500000" lon="119.6228470000" />
      <trkpt lat="32.0270044000" lon="119.6240441000" />
      <trkpt lat="32.0252592285" lon="119.6267375013" />
      <trkpt lat="32.0235140000" lon="119.6294308000" />
      <trkpt lat="32.0230051000" lon="119.6302024000" />
      <trkpt lat="32.0225933000" lon="119.6308346000" />
      <trkpt lat="32.0206121000" lon="119.6338776000" />
      <trkpt lat="32.0201799000" lon="119.6345243000" />
      <trkpt lat="32.0174885000" lon="119.6386086000" />
      <trkpt lat="32.0164196000" lon="119.6402668000" />
      <trkpt lat="32.0141578000" lon="119.6436957000" />
      <trkpt lat="32.0124640000" lon="119.6461487000" />
      <trkpt lat="32.0107146000" lon="119.6485152000" />
      <trkpt lat="32.0086547000" lon="119.6511313000" />
      <trkpt lat="32.0063408000" lon="119.6538946000" />
      <trkpt lat="32.0060246000" lon="119.6542278000" />
      <trkpt lat="32.0044402000" lon="119.6560049000" />
      <trkpt lat="32.0027640000" lon="119.6577299000" />
      <trkpt lat="32.0009318000" lon="119.6595024000" />
      <trkpt lat="32.0002830000" lon="119.6601351000" />
      <trkpt lat="31.9988309000" lon="119.6614805000" />
      <trkpt lat="31.9976800000" lon="119.6625280000" />
      <trkpt lat="31.9968671000" lon="119.6632244000" />
      <trkpt lat="31.9958902000" lon="119.6640667000" />
      <trkpt lat="31.9950856000" lon="119.6647326000" />
      <trkpt lat="31.9939877000" lon="119.6656240000" />
      <trkpt lat="31.9927615000" lon="119.6665999000" />
      <trkpt lat="31.9891700000" lon="119.6694313000" />
      <trkpt lat="31.9885291000" lon="119.6699418000" />
      <trkpt lat="31.9869271000" lon="119.6712145000" />
      <trkpt lat="31.9852038000" lon="119.6726310000" />
      <trkpt lat="31.9841588000" lon="119.6735533000" />
      <trkpt lat="31.9831377000" lon="119.6745121000" />
      <trkpt lat="31.9825041000" lon="119.6751365000" />
      <trkpt lat="31.9814583000" lon="119.6762066000" />
      <trkpt lat="31.9811283000" lon="119.6765580000" />
      <trkpt lat="31.9803177000" lon="119.6774384000" />
      <trkpt lat="31.9798435000" lon="119.6779749000" />
      <trkpt lat="31.9796475000" lon="119.6782026000" />
      <trkpt lat="31.9780054000" lon="119.6801987000" />
      <trkpt lat="31.9767050000" lon="119.6819508000" />
      <trkpt lat="31.9752856000" lon="119.6839819000" />
      <trkpt lat="31.9741135000" lon="119.6856732000" />
      <trkpt lat="31.9728261000" lon="119.6875282000" />
      <trkpt lat="31.9717007000" lon="119.6891532000" />
      <trkpt lat="31.9698058000" lon="119.6919800000" />
      <trkpt lat="31.9684854000" lon="119.6939252000" />
      <trkpt lat="31.9664847000" lon="119.6968164000" />
      <trkpt lat="31.9662659000" lon="119.6971313000" />
      <trkpt lat="31.9651725000" lon="119.6987045000" />
      <trkpt lat="31.9631376000" lon="119.7016600000" />
      <trkpt lat="31.9618579000" lon="119.7035030000" />
      <trkpt lat="31.9612274000" lon="119.7044457000" />
      <trkpt lat="31.9611122000" lon="119.7046180000" />
      <trkpt lat="31.9601516000" lon="119.7061098000" />
      <trkpt lat="31.9597506000" lon="119.7067628000" />
      <trkpt lat="31.9592937000" lon="119.7075001000" />
      <trkpt lat="31.9582197000" lon="119.7092707000" />
      <trkpt lat="31.9575065000" lon="119.7105268000" />
      <trkpt lat="31.9564200000" lon="119.7124797000" />
      <trkpt lat="31.9563571000" lon="119.7125927000" />
      <trkpt lat="31.9546147000" lon="119.7159402000" />
      <trkpt lat="31.9532262000" lon="119.7188569000" />
      <trkpt lat="31.9524797000" lon="119.7205011000" />
      <trkpt lat="31.9522642000" lon="119.7209663000" />
      <trkpt lat="31.9519065000" lon="119.7218132000" />
      <trkpt lat="31.9511637000" lon="119.7236089000" />
      <trkpt lat="31.9504252000" lon="119.7254702000" />
      <trkpt lat="31.9495024000" lon="119.7279032000" />
      <trkpt lat="31.9483857000" lon="119.7309612000" />
      <trkpt lat="31.9483616000" lon="119.7310273000" />
      <trkpt lat="31.9467606000" lon="119.7354409000" />
      <trkpt lat="31.9465839000" lon="119.7359278000" />
      <trkpt lat="31.9465299000" lon="119.7360768000" />
      <trkpt lat="31.9451575662" lon="119.7398368685" />
      <trkpt lat="31.9437851216" lon="119.7435968246" />
      <trkpt lat="31.9424125662" lon="119.7473566685" />
      <trkpt lat="31.9410399000" lon="119.7511164000" />
      <trkpt lat="31.9396315084" lon="119.7549783592" />
      <trkpt lat="31.9382230000" lon="119.7588402000" />
      <trkpt lat="31.9371044868" lon="119.7619050373" />
      <trkpt lat="31.9359859000" lon="119.7649698000" />
      <trkpt lat="31.9350982000" lon="119.7674078000" />
      <trkpt lat="31.9349622000" lon="119.7677813000" />
      <trkpt lat="31.9348187000" lon="119.7681753000" />
      <trkpt lat="31.9343803000" lon="119.7693881000" />
      <trkpt lat="31.9332672000" lon="119.7722741000" />
      <trkpt lat="31.9325892000" lon="119.7739125000" />
      <trkpt lat="31.9319061000" lon="119.7755170000" />
      <trkpt lat="31.9312390000" lon="119.7770135000" />
      <trkpt lat="31.9304004000" lon="119.7788354000" />
      <trkpt lat="31.9299425000" lon="119.7797863000" />
      <trkpt lat="31.9293220000" lon="119.7810280000" />
      <trkpt lat="31.9286849000" lon="119.7822693000" />
      <trkpt lat="31.9280635000" lon="119.7834674000" />
      <trkpt lat="31.9274800000" lon="119.7845467000" />
      <trkpt lat="31.9269011000" lon="119.7855963000" />
      <trkpt lat="31.9264372000" lon="119.7864181000" />
      <trkpt lat="31.9249783000" lon="119.7888844000" />
      <trkpt lat="31.9239667000" lon="119.7905976000" />
      <trkpt lat="31.9228118000" lon="119.7925681000" />
      <trkpt lat="31.9217459000" lon="119.7944030000" />
      <trkpt lat="31.9208081000" lon="119.7960857000" />
      <trkpt lat="31.9201707000" lon="119.7972754000" />
      <trkpt lat="31.9200471000" lon="119.7975194000" />
      <trkpt lat="31.9191404000" lon="119.7992871000" />
      <trkpt lat="31.9186675000" lon="119.8002414000" />
      <trkpt lat="31.9180373000" lon="119.8015740000" />
      <trkpt lat="31.9175406000" lon="119.8026364000" />
      <trkpt lat="31.9170383000" lon="119.8037762000" />
      <trkpt lat="31.9166783000" lon="119.8046054000" />
      <trkpt lat="31.9164713000" lon="119.8050857000" />
      <trkpt lat="31.9161347000" lon="119.8058953000" />
      <trkpt lat="31.9154009000" lon="119.8077102000" />
      <trkpt lat="31.9152208000" lon="119.8081899000" />
      <trkpt lat="31.9150583000" lon="119.8086063000" />
      <trkpt lat="31.9145489000" lon="119.8099495000" />
      <trkpt lat="31.9138935000" lon="119.8118522000" />
      <trkpt lat="31.9127762999" lon="119.8154212433" />
      <trkpt lat="31.9116590000" lon="119.8189902000" />
      <trkpt lat="31.9108675000" lon="119.8216247000" />
      <trkpt lat="31.9098567000" lon="119.8249462000" />
      <trkpt lat="31.9093330000" lon="119.8266739000" />
      <trkpt lat="31.9088458000" lon="119.8281691000" />
      <trkpt lat="31.9083256000" lon="119.8297172000" />
      <trkpt lat="31.9078446000" lon="119.8310259000" />
      <trkpt lat="31.9072342000" lon="119.8326218000" />
      <trkpt lat="31.9063263000" lon="119.8348029000" />
      <trkpt lat="31.9056170000" lon="119.8363782000" />
      <trkpt lat="31.9054871000" lon="119.8366562000" />
      <trkpt lat="31.9050108000" lon="119.8376668000" />
      <trkpt lat="31.9044793000" lon="119.8387732000" />
      <trkpt lat="31.9039088000" lon="119.8398600000" />
      <trkpt lat="31.9029746000" lon="119.8416233000" />
      <trkpt lat="31.9021955000" lon="119.8429586000" />
      <trkpt lat="31.9010428000" lon="119.8448823000" />
      <trkpt lat="31.9006433000" lon="119.8454932000" />
      <trkpt lat="31.8998845000" lon="119.8466677000" />
      <trkpt lat="31.8991139000" lon="119.8477868000" />
      <trkpt lat="31.8981910000" lon="119.8491168000" />
      <trkpt lat="31.8973449000" lon="119.8503136000" />
      <trkpt lat="31.8962819000" lon="119.8518785000" />
      <trkpt lat="31.8956387000" lon="119.8528792000" />
      <trkpt lat="31.8948908000" lon="119.8541206000" />
      <trkpt lat="31.8940443000" lon="119.8556102000" />
      <trkpt lat="31.8937418000" lon="119.8561667000" />
      <trkpt lat="31.8935913000" lon="119.8564512000" />
      <trkpt lat="31.8929164000" lon="119.8577449000" />
      <trkpt lat="31.8923557000" lon="119.8589073000" />
      <trkpt lat="31.8917312000" lon="119.8602449000" />
      <trkpt lat="31.8907955000" lon="119.8624893000" />
      <trkpt lat="31.8905939000" lon="119.8629668000" />
      <trkpt lat="31.8897958000" lon="119.8651343000" />
      <trkpt lat="31.8897371362" lon="119.8653068478" />
    </trkseg>
  </trk>
</gpx>