<?xml version='1.0' encoding='utf-8'?>
<gpx version="1.1" creator="ProUnbound / OpenStreetMap">
  <trk>
    <name>06 · S13 · на восток</name>
    <trkseg>
      <trkpt lat="30.5344670738" lon="120.1985482528" />
      <trkpt lat="30.5354421000" lon="120.1995777000" />
      <trkpt lat="30.5375930000" lon="120.2020400000" />
      <trkpt lat="30.5397190000" lon="120.2048080000" />
      <trkpt lat="30.5417070000" lon="120.2077640000" />
      <trkpt lat="30.5422993000" lon="120.2087713000" />
      <trkpt lat="30.5435090000" lon="120.2107600000" />
      <trkpt lat="30.5437623000" lon="120.2112420000" />
      <trkpt lat="30.5439451000" lon="120.2115899000" />
      <trkpt lat="30.5445475000" lon="120.2127366000" />
      <trkpt lat="30.5451088000" lon="120.2138471000" />
      <trkpt lat="30.5457398000" lon="120.2151849000" />
      <trkpt lat="30.5459068000" lon="120.2155501000" />
      <trkpt lat="30.5460121000" lon="120.2157869000" />
      <trkpt lat="30.5464372000" lon="120.2167631000" />
      <trkpt lat="30.5468288000" lon="120.2176660000" />
      <trkpt lat="30.5471220000" lon="120.2183749000" />
      <trkpt lat="30.5474798000" lon="120.2193433000" />
      <trkpt lat="30.5480924000" lon="120.2210772000" />
      <trkpt lat="30.5485328000" lon="120.2224213000" />
      <trkpt lat="30.5488778000" lon="120.2236397000" />
      <trkpt lat="30.5490050000" lon="120.2239410000" />
      <trkpt lat="30.5490930000" lon="120.2242590000" />
      <trkpt lat="30.5491790000" lon="120.2245780000" />
      <trkpt lat="30.5493490000" lon="120.2252140000" />
      <trkpt lat="30.5494320000" lon="120.2255310000" />
      <trkpt lat="30.5495150000" lon="120.2258440000" />
      <trkpt lat="30.5496780000" lon="120.2264670000" />
      <trkpt lat="30.5497570000" lon="120.2267760000" />
      <trkpt lat="30.5498340000" lon="120.2270860000" />
      <trkpt lat="30.5499780000" lon="120.2277090000" />
      <trkpt lat="30.5500460000" lon="120.2280200000" />
      <trkpt lat="30.5501110000" lon="120.2283340000" />
      <trkpt lat="30.5502370000" lon="120.2289660000" />
      <trkpt lat="30.5502990000" lon="120.2292830000" />
      <trkpt lat="30.5504250000" lon="120.2299200000" />
      <trkpt lat="30.5504850000" lon="120.2302440000" />
      <trkpt lat="30.5505155000" lon="120.2304224000" />
      <trkpt lat="30.5505960000" lon="120.2308930000" />
      <trkpt lat="30.5506980000" lon="120.2315350000" />
      <trkpt lat="30.5507920000" lon="120.2321700000" />
      <trkpt lat="30.5508380000" lon="120.2324840000" />
      <trkpt lat="30.5509260000" lon="120.2331130000" />
      <trkpt lat="30.5509690000" lon="120.2334240000" />
      <trkpt lat="30.5510470000" lon="120.2340440000" />
      <trkpt lat="30.5510830000" lon="120.2343550000" />
      <trkpt lat="30.5511190000" lon="120.2346670000" />
      <trkpt lat="30.5511530000" lon="120.2349800000" />
      <trkpt lat="30.5512230000" lon="120.2356060000" />
      <trkpt lat="30.5512950000" lon="120.2362370000" />
      <trkpt lat="30.5513680000" lon="120.2368700000" />
      <trkpt lat="30.5514090000" lon="120.2371880000" />
      <trkpt lat="30.5514960000" lon="120.2378240000" />
      <trkpt lat="30.5515940000" lon="120.2384610000" />
      <trkpt lat="30.5516460000" lon="120.2387790000" />
      <trkpt lat="30.5516747000" lon="120.2389455000" />
      <trkpt lat="30.5516959000" lon="120.2390683000" />
      <trkpt lat="30.5517560000" lon="120.2394170000" />
      <trkpt lat="30.5518140000" lon="120.2397370000" />
      <trkpt lat="30.5519350000" lon="120.2403810000" />
      <trkpt lat="30.5520050000" lon="120.2407020000" />
      <trkpt lat="30.5521524000" lon="120.2413374000" />
      <trkpt lat="30.5522310000" lon="120.2416680000" />
      <trkpt lat="30.5523960000" lon="120.2423080000" />
      <trkpt lat="30.5524850000" lon="120.2426240000" />
      <trkpt lat="30.5526644000" lon="120.2432397000" />
      <trkpt lat="30.5526867000" lon="120.2433156000" />
      <trkpt lat="30.5527600000" lon="120.2435700000" />
      <trkpt lat="30.5528560000" lon="120.2438830000" />
      <trkpt lat="30.5530560000" lon="120.2445020000" />
      <trkpt lat="30.5531822000" lon="120.2448493000" />
      <trkpt lat="30.5534221000" lon="120.2454853000" />
      <trkpt lat="30.5536280000" lon="120.2460010000" />
      <trkpt lat="30.5537460000" lon="120.2462940000" />
      <trkpt lat="30.5539890000" lon="120.2468770000" />
      <trkpt lat="30.5540571000" lon="120.2470296000" />
      <trkpt lat="30.5541031000" lon="120.2471329000" />
      <trkpt lat="30.5541170000" lon="120.2471640000" />
      <trkpt lat="30.5543810000" lon="120.2477310000" />
      <trkpt lat="30.5545160000" lon="120.2480110000" />
      <trkpt lat="30.5547870000" lon="120.2485750000" />
      <trkpt lat="30.5550680000" lon="120.2491370000" />
      <trkpt lat="30.5552150000" lon="120.2494150000" />
      <trkpt lat="30.5555200000" lon="120.2499670000" />
      <trkpt lat="30.5556351000" lon="120.2501699000" />
      <trkpt lat="30.5558310000" lon="120.2505150000" />
      <trkpt lat="30.5560508000" lon="120.2508883000" />
      <trkpt lat="30.5561490000" lon="120.2510550000" />
      <trkpt lat="30.5563080000" lon="120.2513230000" />
      <trkpt lat="30.5566320000" lon="120.2518520000" />
      <trkpt lat="30.5568120000" lon="120.2521363000" />
      <trkpt lat="30.5568783000" lon="120.2522410000" />
      <trkpt lat="30.5569600000" lon="120.2523700000" />
      <trkpt lat="30.5571260000" lon="120.2526250000" />
      <trkpt lat="30.5574660000" lon="120.2531250000" />
      <trkpt lat="30.5576340000" lon="120.2533760000" />
      <trkpt lat="30.5578010000" lon="120.2536260000" />
      <trkpt lat="30.5581300000" lon="120.2541280000" />
      <trkpt lat="30.5582930000" lon="120.2543800000" />
      <trkpt lat="30.5586230000" lon="120.2548770000" />
      <trkpt lat="30.5589560000" lon="120.2553670000" />
      <trkpt lat="30.5592820000" lon="120.2558630000" />
      <trkpt lat="30.5594440000" lon="120.2561120000" />
      <trkpt lat="30.5597720000" lon="120.2566080000" />
      <trkpt lat="30.5601000000" lon="120.2571110000" />
      <trkpt lat="30.5603169000" lon="120.2574436000" />
      <trkpt lat="30.5607570000" lon="120.2580954000" />
      <trkpt lat="30.5612010000" lon="120.2587529000" />
      <trkpt lat="30.5617510000" lon="120.2596420000" />
      <trkpt lat="30.5622694000" lon="120.2603633000" />
      <trkpt lat="30.5629263000" lon="120.2613744000" />
      <trkpt lat="30.5635450000" lon="120.2623459000" />
      <trkpt lat="30.5638616000" lon="120.2628141000" />
      <trkpt lat="30.5654445228" lon="120.2652561102" />
      <trkpt lat="30.5670274000" lon="120.2676982000" />
      <trkpt lat="30.5686103000" lon="120.2701196000" />
      <trkpt lat="30.5686701000" lon="120.2702112000" />
      <trkpt lat="30.5700140000" lon="120.2722670000" />
      <trkpt lat="30.5703323000" lon="120.2727569000" />
      <trkpt lat="30.5706990000" lon="120.2733330000" />
      <trkpt lat="30.5718009000" lon="120.2750138000" />
      <trkpt lat="30.5723444000" lon="120.2758364000" />
      <trkpt lat="30.5725930000" lon="120.2762310000" />
      <trkpt lat="30.5739056000" lon="120.2782324000" />
      <trkpt lat="30.5743110000" lon="120.2788520000" />
      <trkpt lat="30.5753401000" lon="120.2804978000" />
      <trkpt lat="30.5754550000" lon="120.2806940000" />
      <trkpt lat="30.5768798000" lon="120.2832619000" />
      <trkpt lat="30.5773012000" lon="120.2840730000" />
      <trkpt lat="30.5776923000" lon="120.2848620000" />
      <trkpt lat="30.5783213000" lon="120.2861938000" />
      <trkpt lat="30.5789937000" lon="120.2876907000" />
      <trkpt lat="30.5795382000" lon="120.2890482000" />
      <trkpt lat="30.5801003000" lon="120.2904959000" />
      <trkpt lat="30.5801341000" lon="120.2905842000" />
      <trkpt lat="30.5801779000" lon="120.2906987000" />
      <trkpt lat="30.5808409000" lon="120.2924314000" />
      <trkpt lat="30.5815400000" lon="120.2941209000" />
      <trkpt lat="30.5818582000" lon="120.2948869000" />
      <trkpt lat="30.5819650000" lon="120.2951790000" />
      <trkpt lat="30.5821473000" lon="120.2955705000" />
      <trkpt lat="30.5825270000" lon="120.2964239000" />
      <trkpt lat="30.5833804000" lon="120.2981426000" />
      <trkpt lat="30.5846379000" lon="120.3005561000" />
      <trkpt lat="30.5848978000" lon="120.3010253000" />
      <trkpt lat="30.5855150000" lon="120.3021394000" />
      <trkpt lat="30.5857260000" lon="120.3025880000" />
      <trkpt lat="30.5858310000" lon="120.3027510000" />
      <trkpt lat="30.5860430000" lon="120.3030960000" />
      <trkpt lat="30.5861500000" lon="120.3032740000" />
      <trkpt lat="30.5862560000" lon="120.3034550000" />
      <trkpt lat="30.5864740000" lon="120.3038220000" />
      <trkpt lat="30.5867070000" lon="120.3041940000" />
      <trkpt lat="30.5868300000" lon="120.3043820000" />
      <trkpt lat="30.5870850000" lon="120.3047690000" />
      <trkpt lat="30.5872210000" lon="120.3049640000" />
      <trkpt lat="30.5873570000" lon="120.3051620000" />
      <trkpt lat="30.5876330000" lon="120.3055680000" />
      <trkpt lat="30.5877700000" lon="120.3057770000" />
      <trkpt lat="30.5879070000" lon="120.3059880000" />
      <trkpt lat="30.5882004000" lon="120.3064132000" />
      <trkpt lat="30.5884780000" lon="120.3068300000" />
      <trkpt lat="30.5887652000" lon="120.3072376000" />
      <trkpt lat="30.5890820000" lon="120.3076850000" />
      <trkpt lat="30.5894010000" lon="120.3081230000" />
      <trkpt lat="30.5895630000" lon="120.3083480000" />
      <trkpt lat="30.5898890000" lon="120.3087960000" />
      <trkpt lat="30.5902200000" lon="120.3092420000" />
      <trkpt lat="30.5905500000" lon="120.3096850000" />
      <trkpt lat="30.5907160000" lon="120.3099090000" />
      <trkpt lat="30.5910590000" lon="120.3103520000" />
      <trkpt lat="30.5914140000" lon="120.3107910000" />
      <trkpt lat="30.5917670000" lon="120.3112270000" />
      <trkpt lat="30.5919003000" lon="120.3113950000" />
      <trkpt lat="30.5921130000" lon="120.3116570000" />
      <trkpt lat="30.5937220000" lon="120.3135090000" />
      <trkpt lat="30.5955020000" lon="120.3153830000" />
      <trkpt lat="30.5981751000" lon="120.3178796000" />
      <trkpt lat="30.5989084000" lon="120.3185398000" />
      <trkpt lat="30.5994764000" lon="120.3190041000" />
      <trkpt lat="30.6002707000" lon="120.3196751000" />
      <trkpt lat="30.6015422000" lon="120.3206966000" />
      <trkpt lat="30.6017234000" lon="120.3208568000" />
      <trkpt lat="30.6024850000" lon="120.3215300000" />
      <trkpt lat="30.6036509000" lon="120.3222606000" />
      <trkpt lat="30.6039560000" lon="120.3224735000" />
      <trkpt lat="30.6053449000" lon="120.3234206000" />
      <trkpt lat="30.6060687000" lon="120.3238706000" />
      <trkpt lat="30.6062630000" lon="120.3239913000" />
      <trkpt lat="30.6069531000" lon="120.3244204000" />
      <trkpt lat="30.6081196000" lon="120.3251173000" />
      <trkpt lat="30.6083153000" lon="120.3252343000" />
      <trkpt lat="30.6105874000" lon="120.3265919000" />
      <trkpt lat="30.6109689000" lon="120.3268199000" />
      <trkpt lat="30.6120552000" lon="120.3275186000" />
      <trkpt lat="30.6122270000" lon="120.3276390000" />
      <trkpt lat="30.6126780000" lon="120.3278960000" />
      <trkpt lat="30.6131260000" lon="120.3281610000" />
      <trkpt lat="30.6135780000" lon="120.3284180000" />
      <trkpt lat="30.6138050000" lon="120.3285440000" />
      <trkpt lat="30.6140320000" lon="120.3286710000" />
      <trkpt lat="30.6144840000" lon="120.3289350000" />
      <trkpt lat="30.6147120000" lon="120.3290700000" />
      <trkpt lat="30.6149420000" lon="120.3292060000" />
      <trkpt lat="30.6154140000" lon="120.3294800000" />
      <trkpt lat="30.6156520000" lon="120.3296210000" />
      <trkpt lat="30.6158920000" lon="120.3297580000" />
      <trkpt lat="30.6163710000" lon="120.3300390000" />
      <trkpt lat="30.6166090000" lon="120.3301840000" />
      <trkpt lat="30.6170920000" lon="120.3304660000" />
      <trkpt lat="30.6175770000" lon="120.3307590000" />
      <trkpt lat="30.6176089000" lon="120.3307785000" />
      <trkpt lat="30.6180680000" lon="120.3310580000" />
      <trkpt lat="30.6185690000" lon="120.3313570000" />
      <trkpt lat="30.6188220000" lon="120.3315050000" />
      <trkpt lat="30.6191164000" lon="120.3316607000" />
      <trkpt lat="30.6193240000" lon="120.3318060000" />
      <trkpt lat="30.6195740000" lon="120.3319560000" />
      <trkpt lat="30.6200730000" lon="120.3322500000" />
      <trkpt lat="30.6205640000" lon="120.3325490000" />
      <trkpt lat="30.6210590000" lon="120.3328380000" />
      <trkpt lat="30.6215510000" lon="120.3331270000" />
      <trkpt lat="30.6217950000" lon="120.3332710000" />
      <trkpt lat="30.6222830000" lon="120.3335590000" />
      <trkpt lat="30.6227760000" lon="120.3338460000" />
      <trkpt lat="30.6230260000" lon="120.3339900000" />
      <trkpt lat="30.6232770000" lon="120.3341370000" />
      <trkpt lat="30.6234349000" lon="120.3342306000" />
      <trkpt lat="30.6235747000" lon="120.3343134000" />
      <trkpt lat="30.6236690000" lon="120.3343693000" />
      <trkpt lat="30.6237800000" lon="120.3344350000" />
      <trkpt lat="30.6240310000" lon="120.3345840000" />
      <trkpt lat="30.6242810000" lon="120.3347350000" />
      <trkpt lat="30.6247780000" lon="120.3350360000" />
      <trkpt lat="30.6252710000" lon="120.3353280000" />
      <trkpt lat="30.6257570000" lon="120.3356100000" />
      <trkpt lat="30.6259980000" lon="120.3357480000" />
      <trkpt lat="30.6264061000" lon="120.3360056000" />
      <trkpt lat="30.6269420000" lon="120.3363140000" />
      <trkpt lat="30.6274150000" lon="120.3366010000" />
      <trkpt lat="30.6278860000" lon="120.3369010000" />
      <trkpt lat="30.6281230000" lon="120.3370550000" />
      <trkpt lat="30.6283630000" lon="120.3372100000" />
      <trkpt lat="30.6288390000" lon="120.3375290000" />
      <trkpt lat="30.6290800000" lon="120.3376900000" />
      <trkpt lat="30.6293210000" lon="120.3378550000" />
      <trkpt lat="30.6298010000" lon="120.3381930000" />
      <trkpt lat="30.6300863000" lon="120.3384189000" />
      <trkpt lat="30.6307330000" lon="120.3388730000" />
      <trkpt lat="30.6309640000" lon="120.3390440000" />
      <trkpt lat="30.6327357000" lon="120.3404176000" />
      <trkpt lat="30.6330275000" lon="120.3406728000" />
      <trkpt lat="30.6335375000" lon="120.3410951000" />
      <trkpt lat="30.6348928000" lon="120.3422845000" />
      <trkpt lat="30.6349803000" lon="120.3423622000" />
      <trkpt lat="30.6365027000" lon="120.3437819000" />
      <trkpt lat="30.6367807000" lon="120.3440745000" />
      <trkpt lat="30.6374673000" lon="120.3447678000" />
      <trkpt lat="30.6389231000" lon="120.3462980000" />
      <trkpt lat="30.6391272000" lon="120.3465364000" />
      <trkpt lat="30.6392119000" lon="120.3466333000" />
      <trkpt lat="30.6404266000" lon="120.3480224000" />
      <trkpt lat="30.6411909000" lon="120.3489403000" />
      <trkpt lat="30.6414263000" lon="120.3492432000" />
      <trkpt lat="30.6424849000" lon="120.3506053000" />
      <trkpt lat="30.6435108000" lon="120.3520175000" />
      <trkpt lat="30.6435783000" lon="120.3521110000" />
      <trkpt lat="30.6436355000" lon="120.3521898000" />
      <trkpt lat="30.6447229000" lon="120.3538039000" />
      <trkpt lat="30.6454318000" lon="120.3549133000" />
      <trkpt lat="30.6459341000" lon="120.3557378000" />
      <trkpt lat="30.6466947000" lon="120.3570306000" />
      <trkpt lat="30.6468591000" lon="120.3572810000" />
      <trkpt lat="30.6469357000" lon="120.3574173000" />
      <trkpt lat="30.6475156000" lon="120.3584963000" />
      <trkpt lat="30.6483033000" lon="120.3600008000" />
      <trkpt lat="30.6491184000" lon="120.3616633000" />
      <trkpt lat="30.6493536000" lon="120.3621727000" />
      <trkpt lat="30.6496686000" lon="120.3628552000" />
      <trkpt lat="30.6506080000" lon="120.3648340000" />
      <trkpt lat="30.6510902000" lon="120.3657490000" />
      <trkpt lat="30.6516151000" lon="120.3667249000" />
      <trkpt lat="30.6523295000" lon="120.3679993000" />
      <trkpt lat="30.6532762000" lon="120.3696621000" />
      <trkpt lat="30.6533982000" lon="120.3698646000" />
      <trkpt lat="30.6541514000" lon="120.3711146000" />
      <trkpt lat="30.6547223000" lon="120.3720308000" />
      <trkpt lat="30.6557059000" lon="120.3735596000" />
      <trkpt lat="30.6558639000" lon="120.3737907000" />
      <trkpt lat="30.6560423000" lon="120.3740517000" />
      <trkpt lat="30.6568852000" lon="120.3752777000" />
      <trkpt lat="30.6573882000" lon="120.3759656000" />
      <trkpt lat="30.6574820000" lon="120.3760937000" />
      <trkpt lat="30.6581973000" lon="120.3770719000" />
      <trkpt lat="30.6583038000" lon="120.3772175000" />
      <trkpt lat="30.6587490000" lon="120.3778062000" />
      <trkpt lat="30.6595788000" lon="120.3788976000" />
      <trkpt lat="30.6599463000" lon="120.3793400000" />
      <trkpt lat="30.6606690000" lon="120.3802437000" />
      <trkpt lat="30.6618593000" lon="120.3816791000" />
      <trkpt lat="30.6619757000" lon="120.3818108000" />
      <trkpt lat="30.6625931000" lon="120.3825097000" />
      <trkpt lat="30.6634658000" lon="120.3834501000" />
      <trkpt lat="30.6638748000" lon="120.3838909000" />
      <trkpt lat="30.6640245000" lon="120.3840500000" />
      <trkpt lat="30.6640975000" lon="120.3841277000" />
      <trkpt lat="30.6650576000" lon="120.3851485000" />
      <trkpt lat="30.6652815000" lon="120.3853771000" />
      <trkpt lat="30.6654234000" lon="120.3855220000" />
      <trkpt lat="30.6658766000" lon="120.3859848000" />
      <trkpt lat="30.6665410000" lon="120.3866271000" />
      <trkpt lat="30.6676637000" lon="120.3877076000" />
      <trkpt lat="30.6678567000" lon="120.3878828000" />
      <trkpt lat="30.6686374000" lon="120.3885914000" />
      <trkpt lat="30.6689614000" lon="120.3888767000" />
      <trkpt lat="30.6690894000" lon="120.3889895000" />
      <trkpt lat="30.6698504000" lon="120.3896596000" />
      <trkpt lat="30.6704729000" lon="120.3901818000" />
      <trkpt lat="30.6711330000" lon="120.3907356000" />
      <trkpt lat="30.6719949000" lon="120.3914330000" />
      <trkpt lat="30.6727943000" lon="120.3921151000" />
      <trkpt lat="30.6735956000" lon="120.3928037000" />
      <trkpt lat="30.6741109000" lon="120.3932785000" />
      <trkpt lat="30.6742386000" lon="120.3933962000" />
      <trkpt lat="30.6745558000" lon="120.3936885000" />
      <trkpt lat="30.6752073000" lon="120.3943044000" />
      <trkpt lat="30.6760505000" lon="120.3951344000" />
      <trkpt lat="30.6763867000" lon="120.3954636000" />
      <trkpt lat="30.6772206000" lon="120.3963436000" />
      <trkpt lat="30.6777539000" lon="120.3969347000" />
      <trkpt lat="30.6778906000" lon="120.3970862000" />
      <trkpt lat="30.6782066000" lon="120.3974364000" />
      <trkpt lat="30.6787900000" lon="120.3981178000" />
      <trkpt lat="30.6793730000" lon="120.3988180000" />
      <trkpt lat="30.6797336000" lon="120.3992603000" />
      <trkpt lat="30.6800415000" lon="120.3996446000" />
      <trkpt lat="30.6809010000" lon="120.4007550000" />
      <trkpt lat="30.6818290000" lon="120.4020420000" />
      <trkpt lat="30.6825217000" lon="120.4029961000" />
      <trkpt lat="30.6834531000" lon="120.4044330000" />
      <trkpt lat="30.6837438000" lon="120.4049102000" />
      <trkpt lat="30.6842704000" lon="120.4057746000" />
      <trkpt lat="30.6846934000" lon="120.4064810000" />
      <trkpt lat="30.6852982000" lon="120.4075463000" />
      <trkpt lat="30.6854630000" lon="120.4078487000" />
      <trkpt lat="30.6855832000" lon="120.4080694000" />
      <trkpt lat="30.6864242000" lon="120.4096541000" />
      <trkpt lat="30.6865500000" lon="120.4099071000" />
      <trkpt lat="30.6868360000" lon="120.4104820000" />
      <trkpt lat="30.6873685000" lon="120.4115848000" />
      <trkpt lat="30.6880228000" lon="120.4130738000" />
      <trkpt lat="30.6884023000" lon="120.4140143000" />
      <trkpt lat="30.6890171000" lon="120.4155378000" />
      <trkpt lat="30.6891336000" lon="120.4158351000" />
      <trkpt lat="30.6895065000" lon="120.4168047000" />
      <trkpt lat="30.6906620000" lon="120.4197772000" />
      <trkpt lat="30.6919475000" lon="120.4230744000" />
      <trkpt lat="30.6920875000" lon="120.4234474000" />
      <trkpt lat="30.6925160000" lon="120.4245532000" />
      <trkpt lat="30.6925543000" lon="120.4246520000" />
      <trkpt lat="30.6929675000" lon="120.4257181000" />
      <trkpt lat="30.6933676000" lon="120.4268481000" />
      <trkpt lat="30.6934080000" lon="120.4269624000" />
      <trkpt lat="30.6935070000" lon="120.4272420000" />
      <trkpt lat="30.6937310000" lon="120.4278430000" />
      <trkpt lat="30.6939550000" lon="120.4284430000" />
      <trkpt lat="30.6940670000" lon="120.4287440000" />
      <trkpt lat="30.6943985000" lon="120.4295018000" />
      <trkpt lat="30.6947095000" lon="120.4302756000" />
      <trkpt lat="30.6948730000" lon="120.4308370000" />
      <trkpt lat="30.6951030000" lon="120.4314360000" />
      <trkpt lat="30.6952190000" lon="120.4317350000" />
      <trkpt lat="30.6954530000" lon="120.4323300000" />
      <trkpt lat="30.6955710000" lon="120.4326190000" />
      <trkpt lat="30.6958100000" lon="120.4331700000" />
      <trkpt lat="30.6960645000" lon="120.4335692000" />
      <trkpt lat="30.6963765000" lon="120.4342028000" />
      <trkpt lat="30.6966630000" lon="120.4347591000" />
      <trkpt lat="30.6968786000" lon="120.4351760000" />
      <trkpt lat="30.6970013000" lon="120.4354044000" />
      <trkpt lat="30.6971156000" lon="120.4355993000" />
      <trkpt lat="30.6972077000" lon="120.4357560000" />
      <trkpt lat="30.6973059000" lon="120.4359127000" />
      <trkpt lat="30.6974610000" lon="120.4361745000" />
      <trkpt lat="30.6977132000" lon="120.4365763000" />
      <trkpt lat="30.6978129000" lon="120.4367537000" />
      <trkpt lat="30.6978810000" lon="120.4368556000" />
      <trkpt lat="30.6979983978" lon="120.4370362424" />
    </trkseg>
  </trk>
</gpx>