<?xml version='1.0' encoding='utf-8'?>
<gpx version="1.1" creator="ProUnbound / OpenStreetMap">
  <trk>
    <name>08 · S08 · на запад</name>
    <trkseg>
      <trkpt lat="33.3896915670" lon="116.2473823971" />
      <trkpt lat="33.3900531000" lon="116.2437871000" />
      <trkpt lat="33.3905172703" lon="116.2395995224" />
      <trkpt lat="33.3909813000" lon="116.2354119000" />
      <trkpt lat="33.3910933000" lon="116.2343605000" />
      <trkpt lat="33.3915630760" lon="116.2300079735" />
      <trkpt lat="33.3920327000" lon="116.2256554000" />
      <trkpt lat="33.3921279000" lon="116.2248561000" />
      <trkpt lat="33.3923171000" lon="116.2234680000" />
      <trkpt lat="33.3925433000" lon="116.2219124000" />
      <trkpt lat="33.3928009000" lon="116.2203580000" />
      <trkpt lat="33.3933730000" lon="116.2172386000" />
      <trkpt lat="33.3939250000" lon="116.2145899000" />
      <trkpt lat="33.3943629000" lon="116.2127486000" />
      <trkpt lat="33.3951556867" lon="116.2097244276" />
      <trkpt lat="33.3959484000" lon="116.2067002000" />
      <trkpt lat="33.3967019000" lon="116.2036961000" />
      <trkpt lat="33.3971374000" lon="116.2017677000" />
      <trkpt lat="33.3975909000" lon="116.1995924000" />
      <trkpt lat="33.3979010000" lon="116.1978891000" />
      <trkpt lat="33.3982649000" lon="116.1957071000" />
      <trkpt lat="33.3983858000" lon="116.1949132000" />
      <trkpt lat="33.3985582000" lon="116.1936620000" />
      <trkpt lat="33.3991035000" lon="116.1888903000" />
      <trkpt lat="33.3992289000" lon="116.1875707000" />
      <trkpt lat="33.3993521000" lon="116.1856556000" />
      <trkpt lat="33.3994786000" lon="116.1833730000" />
      <trkpt lat="33.3995506000" lon="116.1810796000" />
      <trkpt lat="33.3995603000" lon="116.1808571000" />
      <trkpt lat="33.3995334793" lon="116.1781547992" />
      <trkpt lat="33.3995066000" lon="116.1754525000" />
      <trkpt lat="33.3992514075" lon="116.1702744848" />
      <trkpt lat="33.3989960000" lon="116.1650965000" />
      <trkpt lat="33.3989602000" lon="116.1643052000" />
      <trkpt lat="33.3988437000" lon="116.1622989000" />
      <trkpt lat="33.3986310000" lon="116.1576238000" />
      <trkpt lat="33.3985974000" lon="116.1548451000" />
      <trkpt lat="33.3986758000" lon="116.1518034000" />
      <trkpt lat="33.3987839000" lon="116.1501638000" />
      <trkpt lat="33.3988919000" lon="116.1486451000" />
      <trkpt lat="33.3990292000" lon="116.1473668000" />
      <trkpt lat="33.3991930000" lon="116.1459335000" />
      <trkpt lat="33.3993207000" lon="116.1449785000" />
      <trkpt lat="33.3994842000" lon="116.1438540000" />
      <trkpt lat="33.3996980000" lon="116.1425954000" />
      <trkpt lat="33.3999259000" lon="116.1413368000" />
      <trkpt lat="33.4002276000" lon="116.1399353000" />
      <trkpt lat="33.4005836000" lon="116.1383817000" />
      <trkpt lat="33.4009531000" lon="116.1369842000" />
      <trkpt lat="33.4017704290" lon="116.1342966253" />
      <trkpt lat="33.4025877000" lon="116.1316090000" />
      <trkpt lat="33.4035416000" lon="116.1290771000" />
      <trkpt lat="33.4046186000" lon="116.1265062000" />
      <trkpt lat="33.4057785000" lon="116.1239728000" />
      <trkpt lat="33.4072943000" lon="116.1206844000" />
      <trkpt lat="33.4091124000" lon="116.1166920000" />
      <trkpt lat="33.4097741000" lon="116.1152650000" />
      <trkpt lat="33.4098573000" lon="116.1150781000" />
      <trkpt lat="33.4102935000" lon="116.1141385000" />
      <trkpt lat="33.4119850000" lon="116.1103003000" />
      <trkpt lat="33.4129858000" lon="116.1079185000" />
      <trkpt lat="33.4138075000" lon="116.1057687000" />
      <trkpt lat="33.4145967000" lon="116.1035686000" />
      <trkpt lat="33.4157105000" lon="116.1001387000" />
      <trkpt lat="33.4167314000" lon="116.0965754000" />
      <trkpt lat="33.4168993000" lon="116.0959679000" />
      <trkpt lat="33.4176996823" lon="116.0931308261" />
      <trkpt lat="33.4185000000" lon="116.0902937000" />
      <trkpt lat="33.4195164000" lon="116.0872976000" />
      <trkpt lat="33.4200280000" lon="116.0859404000" />
      <trkpt lat="33.4211182000" lon="116.0833012000" />
      <trkpt lat="33.4222141000" lon="116.0808992000" />
      <trkpt lat="33.4232259000" lon="116.0788956000" />
      <trkpt lat="33.4245937000" lon="116.0764495000" />
      <trkpt lat="33.4264411691" lon="116.0735144916" />
      <trkpt lat="33.4282885691" lon="116.0705793583" />
      <trkpt lat="33.4301359000" lon="116.0676441000" />
      <trkpt lat="33.4305373000" lon="116.0670063000" />
      <trkpt lat="33.4312410000" lon="116.0658883000" />
      <trkpt lat="33.4316294000" lon="116.0652781000" />
      <trkpt lat="33.4336618000" lon="116.0621291000" />
      <trkpt lat="33.4339842000" lon="116.0616571000" />
      <trkpt lat="33.4349578000" lon="116.0602650000" />
      <trkpt lat="33.4359192000" lon="116.0590634000" />
      <trkpt lat="33.4368917000" lon="116.0579442000" />
      <trkpt lat="33.4379392000" lon="116.0568854000" />
      <trkpt lat="33.4395463000" lon="116.0553700000" />
      <trkpt lat="33.4419904000" lon="116.0534682000" />
      <trkpt lat="33.4435951000" lon="116.0524115000" />
      <trkpt lat="33.4455288000" lon="116.0513574000" />
      <trkpt lat="33.4470552000" lon="116.0506466000" />
      <trkpt lat="33.4481854000" lon="116.0501879000" />
      <trkpt lat="33.4499624000" lon="116.0496006000" />
      <trkpt lat="33.4515625000" lon="116.0491580000" />
      <trkpt lat="33.4536728000" lon="116.0487395000" />
      <trkpt lat="33.4578933000" lon="116.0480448000" />
      <trkpt lat="33.4605001508" lon="116.0476123130" />
      <trkpt lat="33.4631070000" lon="116.0471798000" />
      <trkpt lat="33.4637705000" lon="116.0470752000" />
      <trkpt lat="33.4668113000" lon="116.0465388000" />
      <trkpt lat="33.4690734000" lon="116.0460118000" />
      <trkpt lat="33.4707034000" lon="116.0455664000" />
      <trkpt lat="33.4732451000" lon="116.0447189000" />
      <trkpt lat="33.4773997000" lon="116.0431176000" />
      <trkpt lat="33.4780273000" lon="116.0428561000" />
      <trkpt lat="33.4802868000" lon="116.0417484000" />
      <trkpt lat="33.4807824000" lon="116.0415003000" />
      <trkpt lat="33.4833461075" lon="116.0401350904" />
      <trkpt lat="33.4859098000" lon="116.0387698000" />
      <trkpt lat="33.4885885000" lon="116.0374944000" />
      <trkpt lat="33.4890851000" lon="116.0372744000" />
      <trkpt lat="33.4921799000" lon="116.0360420000" />
      <trkpt lat="33.4942848000" lon="116.0353768000" />
      <trkpt lat="33.4958147000" lon="116.0349664000" />
      <trkpt lat="33.4980873000" lon="116.0344541000" />
      <trkpt lat="33.5007511000" lon="116.0340089000" />
      <trkpt lat="33.5051091000" lon="116.0335341000" />
      <trkpt lat="33.5056481000" lon="116.0334804000" />
      <trkpt lat="33.5090308000" lon="116.0329923000" />
      <trkpt lat="33.5114018515" lon="116.0323894665" />
      <trkpt lat="33.5137729000" lon="116.0317866000" />
      <trkpt lat="33.5143018000" lon="116.0316217000" />
      <trkpt lat="33.5171978000" lon="116.0305381000" />
      <trkpt lat="33.5207220000" lon="116.0290602000" />
      <trkpt lat="33.5231341544" lon="116.0280121292" />
      <trkpt lat="33.5255463000" lon="116.0269640000" />
      <trkpt lat="33.5277749536" lon="116.0260232742" />
      <trkpt lat="33.5300036000" lon="116.0250825000" />
      <trkpt lat="33.5304955000" lon="116.0248867000" />
      <trkpt lat="33.5325143242" lon="116.0241711267" />
    </trkseg>
  </trk>
</gpx>