<?xml version='1.0' encoding='utf-8'?>
<gpx version="1.1" creator="ProUnbound / OpenStreetMap">
  <trk>
    <name>05 · S25 · на север</name>
    <trkseg>
      <trkpt lat="34.0346505281" lon="116.7365680028" />
      <trkpt lat="34.0352392000" lon="116.7368874000" />
      <trkpt lat="34.0371357000" lon="116.7379808000" />
      <trkpt lat="34.0396493000" lon="116.7396074000" />
      <trkpt lat="34.0414611000" lon="116.7408800000" />
      <trkpt lat="34.0427126000" lon="116.7419084000" />
      <trkpt lat="34.0439285000" lon="116.7429151000" />
      <trkpt lat="34.0449345000" lon="116.7438488000" />
      <trkpt lat="34.0455406000" lon="116.7444131000" />
      <trkpt lat="34.0462977000" lon="116.7451577000" />
      <trkpt lat="34.0465935000" lon="116.7454487000" />
      <trkpt lat="34.0480972000" lon="116.7470108000" />
      <trkpt lat="34.0491697000" lon="116.7481632000" />
      <trkpt lat="34.0494273000" lon="116.7484485000" />
      <trkpt lat="34.0499613000" lon="116.7490401000" />
      <trkpt lat="34.0524140000" lon="116.7517570000" />
      <trkpt lat="34.0556804000" lon="116.7553299000" />
      <trkpt lat="34.0561899000" lon="116.7558872000" />
      <trkpt lat="34.0565385000" lon="116.7562686000" />
      <trkpt lat="34.0577185000" lon="116.7575669000" />
      <trkpt lat="34.0604885000" lon="116.7606241000" />
      <trkpt lat="34.0609038000" lon="116.7610737000" />
      <trkpt lat="34.0626276000" lon="116.7629318000" />
      <trkpt lat="34.0641769000" lon="116.7644742000" />
      <trkpt lat="34.0660728000" lon="116.7659993000" />
      <trkpt lat="34.0665349000" lon="116.7663363000" />
      <trkpt lat="34.0681242000" lon="116.7674214000" />
      <trkpt lat="34.0697681000" lon="116.7683212000" />
      <trkpt lat="34.0704340000" lon="116.7686369000" />
      <trkpt lat="34.0716630000" lon="116.7691838000" />
      <trkpt lat="34.0726205000" lon="116.7695387000" />
      <trkpt lat="34.0739628000" lon="116.7699633000" />
      <trkpt lat="34.0754648000" lon="116.7703313000" />
      <trkpt lat="34.0779352000" lon="116.7708329000" />
      <trkpt lat="34.0789699000" lon="116.7710591000" />
      <trkpt lat="34.0795047000" lon="116.7711818000" />
      <trkpt lat="34.0814741000" lon="116.7717719000" />
      <trkpt lat="34.0819776000" lon="116.7719583000" />
      <trkpt lat="34.0824934000" lon="116.7721503000" />
      <trkpt lat="34.0832817000" lon="116.7724899000" />
      <trkpt lat="34.0843036000" lon="116.7730064000" />
      <trkpt lat="34.0855274000" lon="116.7736864000" />
      <trkpt lat="34.0870752000" lon="116.7746931000" />
      <trkpt lat="34.0882712000" lon="116.7755756000" />
      <trkpt lat="34.0888025000" lon="116.7760205000" />
      <trkpt lat="34.0908695000" lon="116.7778632000" />
      <trkpt lat="34.0924425000" lon="116.7793187000" />
      <trkpt lat="34.0941718000" lon="116.7808334000" />
      <trkpt lat="34.0956093000" lon="116.7818661000" />
      <trkpt lat="34.0978002000" lon="116.7832043000" />
      <trkpt lat="34.0999909000" lon="116.7842831000" />
      <trkpt lat="34.1018056000" lon="116.7849711000" />
      <trkpt lat="34.1032732000" lon="116.7854123000" />
      <trkpt lat="34.1038372000" lon="116.7855672000" />
      <trkpt lat="34.1039517000" lon="116.7855987000" />
      <trkpt lat="34.1059983000" lon="116.7860292000" />
      <trkpt lat="34.1091736705" lon="116.7867153152" />
      <trkpt lat="34.1123490371" lon="116.7874014818" />
      <trkpt lat="34.1155244000" lon="116.7880877000" />
      <trkpt lat="34.1158949000" lon="116.7881677000" />
      <trkpt lat="34.1196557000" lon="116.7889805000" />
      <trkpt lat="34.1211344000" lon="116.7893498000" />
      <trkpt lat="34.1230721000" lon="116.7899429000" />
      <trkpt lat="34.1244134000" lon="116.7904806000" />
      <trkpt lat="34.1254909000" lon="116.7909735000" />
      <trkpt lat="34.1261214000" lon="116.7913064000" />
      <trkpt lat="34.1270880000" lon="116.7918596000" />
      <trkpt lat="34.1278857000" lon="116.7924121000" />
      <trkpt lat="34.1289868000" lon="116.7931598000" />
      <trkpt lat="34.1300676000" lon="116.7940038000" />
      <trkpt lat="34.1313466000" lon="116.7951556000" />
      <trkpt lat="34.1325723000" lon="116.7963899000" />
      <trkpt lat="34.1337398000" lon="116.7977363000" />
      <trkpt lat="34.1349869000" lon="116.7993661000" />
      <trkpt lat="34.1356574000" lon="116.8003820000" />
      <trkpt lat="34.1362045000" lon="116.8012480000" />
      <trkpt lat="34.1365516000" lon="116.8018424000" />
      <trkpt lat="34.1370448000" lon="116.8027192000" />
      <trkpt lat="34.1374826000" lon="116.8035952000" />
      <trkpt lat="34.1395753000" lon="116.8081132000" />
      <trkpt lat="34.1406089000" lon="116.8102592000" />
      <trkpt lat="34.1413199000" lon="116.8117451000" />
      <trkpt lat="34.1419238000" lon="116.8129048000" />
      <trkpt lat="34.1423888000" lon="116.8137300000" />
      <trkpt lat="34.1429173000" lon="116.8146025000" />
      <trkpt lat="34.1431890000" lon="116.8150465000" />
      <trkpt lat="34.1438938000" lon="116.8160685000" />
      <trkpt lat="34.1443637000" lon="116.8167102000" />
      <trkpt lat="34.1452586000" lon="116.8178492000" />
      <trkpt lat="34.1462448000" lon="116.8189457000" />
      <trkpt lat="34.1473524000" lon="116.8200755000" />
      <trkpt lat="34.1484031000" lon="116.8210251000" />
      <trkpt lat="34.1497187000" lon="116.8220688000" />
      <trkpt lat="34.1514770000" lon="116.8232834000" />
      <trkpt lat="34.1527814000" lon="116.8240468000" />
      <trkpt lat="34.1539947000" lon="116.8246535000" />
      <trkpt lat="34.1556968000" lon="116.8253377000" />
      <trkpt lat="34.1571972000" lon="116.8258360000" />
      <trkpt lat="34.1588901000" lon="116.8263391000" />
      <trkpt lat="34.1613556521" lon="116.8270604289" />
      <trkpt lat="34.1638212000" lon="116.8277818000" />
      <trkpt lat="34.1667248000" lon="116.8287216000" />
      <trkpt lat="34.1688048000" lon="116.8294756000" />
      <trkpt lat="34.1699933000" lon="116.8299633000" />
      <trkpt lat="34.1723042000" lon="116.8309696000" />
      <trkpt lat="34.1740823000" lon="116.8318124000" />
      <trkpt lat="34.1754852000" lon="116.8325196000" />
      <trkpt lat="34.1766813000" lon="116.8331726000" />
      <trkpt lat="34.1772801000" lon="116.8335089000" />
      <trkpt lat="34.1793615000" lon="116.8347310000" />
      <trkpt lat="34.1807445000" lon="116.8355910000" />
      <trkpt lat="34.1824690000" lon="116.8367459000" />
      <trkpt lat="34.1835678000" lon="116.8375142000" />
      <trkpt lat="34.1852586000" lon="116.8387751000" />
      <trkpt lat="34.1870280000" lon="116.8401696000" />
      <trkpt lat="34.1884812000" lon="116.8413766000" />
      <trkpt lat="34.1893786000" lon="116.8421584000" />
      <trkpt lat="34.1906600000" lon="116.8433104000" />
      <trkpt lat="34.1938150618" lon="116.8463416347" />
      <trkpt lat="34.1969700491" lon="116.8493730963" />
      <trkpt lat="34.2001249619" lon="116.8524047847" />
      <trkpt lat="34.2032798000" lon="116.8554367000" />
      <trkpt lat="34.2063876000" lon="116.8584156000" />
      <trkpt lat="34.2076873000" lon="116.8596635000" />
      <trkpt lat="34.2101687000" lon="116.8620459000" />
      <trkpt lat="34.2112676000" lon="116.8630649000" />
      <trkpt lat="34.2118508000" lon="116.8635770000" />
      <trkpt lat="34.2118998000" lon="116.8636215000" />
      <trkpt lat="34.2136121000" lon="116.8649518000" />
      <trkpt lat="34.2152069000" lon="116.8659818000" />
      <trkpt lat="34.2163241000" lon="116.8666242000" />
      <trkpt lat="34.2178839000" lon="116.8674061000" />
      <trkpt lat="34.2203037000" lon="116.8683878000" />
      <trkpt lat="34.2215656000" lon="116.8687499000" />
      <trkpt lat="34.2228032000" lon="116.8690476000" />
      <trkpt lat="34.2253558012" lon="116.8695840337" />
      <trkpt lat="34.2279084000" lon="116.8701205000" />
      <trkpt lat="34.2310020000" lon="116.8708929000" />
      <trkpt lat="34.2315741000" lon="116.8710552000" />
      <trkpt lat="34.2324819000" lon="116.8713453000" />
      <trkpt lat="34.2343007000" lon="116.8719985000" />
      <trkpt lat="34.2361466000" lon="116.8727732000" />
      <trkpt lat="34.2364704000" lon="116.8729167000" />
      <trkpt lat="34.2380536000" lon="116.8736824000" />
      <trkpt lat="34.2393489000" lon="116.8743859000" />
      <trkpt lat="34.2407854000" lon="116.8752220000" />
      <trkpt lat="34.2420227000" lon="116.8760079000" />
      <trkpt lat="34.2431225000" lon="116.8767630000" />
      <trkpt lat="34.2434251000" lon="116.8769789000" />
      <trkpt lat="34.2452652000" lon="116.8783661000" />
      <trkpt lat="34.2466611000" lon="116.8795632000" />
      <trkpt lat="34.2479615000" lon="116.8807437000" />
      <trkpt lat="34.2497075000" lon="116.8824868000" />
      <trkpt lat="34.2514112000" lon="116.8843100000" />
      <trkpt lat="34.2521132000" lon="116.8850866000" />
      <trkpt lat="34.2523768000" lon="116.8853782000" />
      <trkpt lat="34.2536240000" lon="116.8867512000" />
      <trkpt lat="34.2538630000" lon="116.8870146000" />
      <trkpt lat="34.2562062271" lon="116.8895969281" />
      <trkpt lat="34.2585494000" lon="116.8921794000" />
      <trkpt lat="34.2596295000" lon="116.8934208000" />
      <trkpt lat="34.2605705000" lon="116.8945903000" />
      <trkpt lat="34.2614528000" lon="116.8957905000" />
      <trkpt lat="34.2617747587" lon="116.8962818666" />
    </trkseg>
  </trk>
</gpx>