<?xml version='1.0' encoding='utf-8'?>
<gpx version="1.1" creator="ProUnbound / OpenStreetMap">
  <trk>
    <name>01 · G0321 · на север</name>
    <trkseg>
      <trkpt lat="33.2154079054" lon="116.3709629016" />
      <trkpt lat="33.2158171000" lon="116.3707514000" />
      <trkpt lat="33.2169457000" lon="116.3701680000" />
      <trkpt lat="33.2189738563" lon="116.3689140791" />
      <trkpt lat="33.2210020000" lon="116.3676601000" />
      <trkpt lat="33.2231892087" lon="116.3661859869" />
      <trkpt lat="33.2253764000" lon="116.3647118000" />
      <trkpt lat="33.2263685000" lon="116.3641858000" />
      <trkpt lat="33.2280469000" lon="116.3632959000" />
      <trkpt lat="33.2320673000" lon="116.3614068000" />
      <trkpt lat="33.2360626000" lon="116.3600738000" />
      <trkpt lat="33.2402905000" lon="116.3590184000" />
      <trkpt lat="33.2438419000" lon="116.3585743000" />
      <trkpt lat="33.2464805000" lon="116.3585187017" />
      <trkpt lat="33.2491191000" lon="116.3584631000" />
      <trkpt lat="33.2499409000" lon="116.3584811000" />
      <trkpt lat="33.2529272000" lon="116.3585464000" />
      <trkpt lat="33.2554601008" lon="116.3590048867" />
      <trkpt lat="33.2579930000" lon="116.3594634000" />
      <trkpt lat="33.2603203509" lon="116.3599365874" />
      <trkpt lat="33.2626477000" lon="116.3604098000" />
      <trkpt lat="33.2656552000" lon="116.3609395000" />
      <trkpt lat="33.2677786000" lon="116.3611070000" />
      <trkpt lat="33.2718557000" lon="116.3613020000" />
      <trkpt lat="33.2755840000" lon="116.3611905000" />
      <trkpt lat="33.2784072000" lon="116.3609952000" />
      <trkpt lat="33.2818350000" lon="116.3602978000" />
      <trkpt lat="33.2850751000" lon="116.3595117000" />
      <trkpt lat="33.2855597000" lon="116.3593941000" />
      <trkpt lat="33.2867724000" lon="116.3590999000" />
      <trkpt lat="33.2905429559" lon="116.3578887023" />
      <trkpt lat="33.2943135000" lon="116.3566774000" />
      <trkpt lat="33.2982331000" lon="116.3554038000" />
      <trkpt lat="33.2986520000" lon="116.3552676000" />
      <trkpt lat="33.2999649000" lon="116.3548410000" />
      <trkpt lat="33.3027196524" lon="116.3540622246" />
      <trkpt lat="33.3054744000" lon="116.3532834000" />
      <trkpt lat="33.3056155000" lon="116.3532493000" />
      <trkpt lat="33.3057135000" lon="116.3532256000" />
      <trkpt lat="33.3080679013" lon="116.3526569154" />
      <trkpt lat="33.3104223000" lon="116.3520882000" />
      <trkpt lat="33.3130809005" lon="116.3517409106" />
      <trkpt lat="33.3157395000" lon="116.3513936000" />
      <trkpt lat="33.3202023000" lon="116.3512267000" />
      <trkpt lat="33.3216945000" lon="116.3511214000" />
      <trkpt lat="33.3220852000" lon="116.3510938000" />
      <trkpt lat="33.3221939000" lon="116.3510861000" />
      <trkpt lat="33.3259320003" lon="116.3508223113" />
      <trkpt lat="33.3296701000" lon="116.3505585000" />
      <trkpt lat="33.3307963000" lon="116.3504446000" />
      <trkpt lat="33.3325948000" lon="116.3502626000" />
      <trkpt lat="33.3351837000" lon="116.3496903000" />
      <trkpt lat="33.3357591000" lon="116.3495326000" />
      <trkpt lat="33.3358651000" lon="116.3495035000" />
      <trkpt lat="33.3381300000" lon="116.3488825000" />
      <trkpt lat="33.3407934000" lon="116.3480907000" />
      <trkpt lat="33.3412778000" lon="116.3479467000" />
      <trkpt lat="33.3456082000" lon="116.3466594000" />
      <trkpt lat="33.3488588000" lon="116.3459519000" />
      <trkpt lat="33.3516634000" lon="116.3454217000" />
      <trkpt lat="33.3546332000" lon="116.3451481000" />
      <trkpt lat="33.3549822000" lon="116.3451304000" />
      <trkpt lat="33.3566692000" lon="116.3450553000" />
      <trkpt lat="33.3589488000" lon="116.3450579000" />
      <trkpt lat="33.3597964000" lon="116.3450881000" />
      <trkpt lat="33.3610009000" lon="116.3451478000" />
      <trkpt lat="33.3613576000" lon="116.3451739000" />
      <trkpt lat="33.3629734000" lon="116.3453194000" />
      <trkpt lat="33.3643997000" lon="116.3454907000" />
      <trkpt lat="33.3645859000" lon="116.3455175000" />
      <trkpt lat="33.3662048000" lon="116.3457687000" />
      <trkpt lat="33.3679823000" lon="116.3461053000" />
      <trkpt lat="33.3700868000" lon="116.3465962000" />
      <trkpt lat="33.3717822000" lon="116.3470654000" />
      <trkpt lat="33.3735666000" lon="116.3476033000" />
      <trkpt lat="33.3750690000" lon="116.3480639000" />
      <trkpt lat="33.3759417000" lon="116.3483270000" />
      <trkpt lat="33.3781084000" lon="116.3489885000" />
      <trkpt lat="33.3813355000" lon="116.3499673000" />
      <trkpt lat="33.3825431000" lon="116.3503383000" />
      <trkpt lat="33.3828869000" lon="116.3504440000" />
      <trkpt lat="33.3869627000" lon="116.3516964000" />
      <trkpt lat="33.3912971000" lon="116.3530335000" />
      <trkpt lat="33.3938926000" lon="116.3539588000" />
      <trkpt lat="33.3954031000" lon="116.3546073000" />
      <trkpt lat="33.3960598000" lon="116.3548393000" />
      <trkpt lat="33.3964611000" lon="116.3549811000" />
      <trkpt lat="33.3976821000" lon="116.3554124000" />
      <trkpt lat="33.4005545000" lon="116.3568637000" />
      <trkpt lat="33.4017835000" lon="116.3575227000" />
      <trkpt lat="33.4027184000" lon="116.3580063000" />
      <trkpt lat="33.4049152000" lon="116.3592434000" />
      <trkpt lat="33.4068903574" lon="116.3606017191" />
      <trkpt lat="33.4088655000" lon="116.3619601000" />
      <trkpt lat="33.4111676000" lon="116.3636959000" />
      <trkpt lat="33.4122932000" lon="116.3645898000" />
      <trkpt lat="33.4143459620" lon="116.3663189091" />
      <trkpt lat="33.4163987000" lon="116.3680481000" />
      <trkpt lat="33.4184493161" lon="116.3700527527" />
      <trkpt lat="33.4204999000" lon="116.3720575000" />
      <trkpt lat="33.4235779465" lon="116.3754601294" />
      <trkpt lat="33.4266559000" lon="116.3788630000" />
      <trkpt lat="33.4268363000" lon="116.3790724000" />
      <trkpt lat="33.4274986000" lon="116.3798047000" />
      <trkpt lat="33.4300621325" lon="116.3826511159" />
      <trkpt lat="33.4326256000" lon="116.3854977000" />
      <trkpt lat="33.4352889361" lon="116.3884984579" />
      <trkpt lat="33.4379522000" lon="116.3914994000" />
      <trkpt lat="33.4392983000" lon="116.3928338000" />
      <trkpt lat="33.4397763000" lon="116.3932776000" />
      <trkpt lat="33.4414263000" lon="116.3948932000" />
      <trkpt lat="33.4418716000" lon="116.3953042000" />
      <trkpt lat="33.4439684000" lon="116.3973065000" />
      <trkpt lat="33.4468997000" lon="116.3990388000" />
      <trkpt lat="33.4472665000" lon="116.3992556000" />
      <trkpt lat="33.4498647000" lon="116.4006458000" />
      <trkpt lat="33.4517163000" lon="116.4016191000" />
      <trkpt lat="33.4539855000" lon="116.4024933000" />
      <trkpt lat="33.4570001000" lon="116.4032898000" />
      <trkpt lat="33.4599336000" lon="116.4038920000" />
      <trkpt lat="33.4636773000" lon="116.4041057000" />
      <trkpt lat="33.4672749000" lon="116.4039502000" />
      <trkpt lat="33.4673293047" lon="116.4039424387" />
    </trkseg>
  </trk>
</gpx>